{"type":"FeatureCollection","features":[{"type":"Feature","properties":{"name":"San Joaquin County","fips":"06077"},"geometry":{"type":"Polygon","coordinates":[[[-121.17844999983687,37.70552899999504],[-121.11676999976616,37.72414699984604],[-121.11004899974478,37.742128000172386],[-121.03787199962785,37.73915999975042],[-120.99343300008927,37.760941000099336],[-120.92059900002133,37.73832899988455],[-120.92644899983142,38.07742099965496],[-121.02708400022686,38.30025200004766],[-121.34436700025054,38.228210000244395],[-121.39843099979917,38.2274249996943],[-121.42946300035344,38.254882999817134],[-121.47571799993445,38.258090000098214],[-121.52889600010151,38.19533199973519],[-121.53631000005889,38.15158100012618],[-121.58435999976592,38.11829899975831],[-121.56403500021841,38.10142200007349],[-121.58002200022457,38.094414000300304],[-121.58438800025331,38.03602500018097],[-121.55752799955896,38.0166150000845],[-121.57991000007159,38.00778300006549],[-121.55640799982567,37.92363900015468],[-121.57942899984766,37.86015999975489],[-121.53410200037936,37.84945700003216],[-121.5570639999518,37.815752999675624],[-121.5566549996979,37.542732000344024],[-121.50147499971561,37.525002999833184],[-121.47192500019119,37.48178300034248],[-121.22346599985886,37.683607999885574],[-121.1811770002735,37.68789100013344],[-121.17844999983687,37.70552899999504]]]}},{"type":"Feature","properties":{"name":"Imperial County","fips":"06025"},"geometry":{"type":"Polygon","coordinates":[[[-114.72651900031599,32.71827399994687],[-114.70158199979416,32.74563200033836],[-114.61739500043568,32.72825699971399],[-114.53922399967031,32.749812000336306],[-114.52963299999551,32.79547699979853],[-114.46897099955083,32.84515500004095],[-114.46292900012014,32.90794399981124],[-114.48092499961425,32.93627600026564],[-114.46837899989714,32.97074499980908],[-114.49293800012717,32.97178099969671],[-114.5113429998752,33.02345499974607],[-114.61878799998044,33.02720200012409],[-114.64597900021258,33.04890199997234],[-114.66231699984803,33.03267000019643],[-114.70781900011686,33.091102000148005],[-114.67535899985769,33.185488000051045],[-114.68954099969213,33.24642800022418],[-114.67208800034625,33.25849900017514],[-114.73122299955519,33.302433000220375],[-114.6980350000982,33.35244200036962],[-114.72553500012681,33.404055000189544],[-114.64954000015226,33.413633000216834],[-114.62712500002766,33.43355399987502],[-116.08489500008419,33.42593300018274],[-116.08120400044815,33.074864000125885],[-116.10333800036533,33.07483199993631],[-116.10617700005669,32.61844100007823],[-114.72651900031599,32.71827399994687]]]}},{"type":"Feature","properties":{"name":"Shasta County","fips":"06089"},"geometry":{"type":"Polygon","coordinates":[[[-121.3278260002255,40.445366999977736],[-121.33178600037334,41.1838860001242],[-122.4983759997937,41.18267500028956],[-122.4460229998072,41.15924099986369],[-122.45714400019246,41.096611000086064],[-122.53977499979953,41.072605000092004],[-122.52316600000243,41.059207999767864],[-122.52775299996408,41.01439500015547],[-122.59852800031537,40.97584699971516],[-122.6127510001577,40.9212449998119],[-122.60001299992166,40.90034300030497],[-122.66605800019616,40.82587500008099],[-122.65809299969463,40.787503999942935],[-122.71740699990204,40.74718200023472],[-122.70657099992212,40.725331000208584],[-122.72235799991174,40.69547300012351],[-122.75226599963648,40.689642000038084],[-122.69307500035103,40.57533800012417],[-122.76745500012464,40.55517299982043],[-122.79325200008876,40.51451799968191],[-122.84595400005473,40.5051809998982],[-122.90113700041005,40.44561100032389],[-122.99868200014565,40.41814200009202],[-123.01829600021377,40.3724069998472],[-123.06548399993034,40.34509900004626],[-123.06863099959322,40.30472599996478],[-123.05666800020731,40.285374999889655],[-122.97687100026867,40.31514499995798],[-122.91921099972197,40.30657700006027],[-122.87269000000218,40.34892400032876],[-122.74860799961242,40.3656940002929],[-122.65134099971111,40.32828799983338],[-122.52456600011821,40.39447700012734],[-122.44397400013628,40.373261000277964],[-122.31041200039978,40.371064000085035],[-122.22715499990548,40.389309999763995],[-122.19938500043845,40.377844000296946],[-122.19355700036965,40.3923110002593],[-122.18733099991762,40.38140099974308],[-122.17309200018177,40.37905199971777],[-122.18847699959021,40.387484999867446],[-122.00993999983956,40.42676700024505],[-121.9009459996556,40.42093100004844],[-121.85135000024295,40.44259599974858],[-121.73458499972621,40.43563199986874],[-121.68578699983158,40.45313300025654],[-121.59308599997556,40.43112600012646],[-121.56513200038552,40.4457970001385],[-121.3278260002255,40.445366999977736]]]}},{"type":"Feature","properties":{"name":"Humboldt County","fips":"06023"},"geometry":{"type":"Polygon","coordinates":[[[-124.482003000119,40.44031799968951],[-124.42805500002304,40.36178499995013],[-124.421287000146,40.23710200011559],[-124.23120399986263,40.09338199993732],[-124.15376199991664,40.06354400004104],[-124.1348890003635,40.00247000024827],[-123.54445800008108,40.00192300029227],[-123.54301500030758,40.7335780000369],[-123.56625300006456,40.78881000025002],[-123.56305899964768,40.84041699971457],[-123.6102499997373,40.87897200007426],[-123.5972110001007,40.88410400016702],[-123.62389099997166,40.92867399972322],[-123.58786099955198,40.92775499988497],[-123.56016300005497,40.950256999828866],[-123.48145700043563,40.91495699973943],[-123.40603999987107,41.01289700028661],[-123.42327200018235,41.05815699966513],[-123.46400599984125,41.07634799971698],[-123.46422199975132,41.094408000046215],[-123.4398059996364,41.092541000311364],[-123.43260799958905,41.16232800018708],[-123.40829100010669,41.17994399992982],[-123.45530700029408,41.23653700017362],[-123.44381400036313,41.27323399971508],[-123.47864100031055,41.32964799982532],[-123.474085000311,41.366192999727126],[-123.50117000023792,41.382566999962854],[-123.77023899962478,41.38077599967645],[-123.77055099979431,41.464192999790114],[-124.13656099956752,41.464452000174816],[-124.13997300044261,41.38182099977869],[-124.20651499993626,41.384717999870574],[-124.24241999978413,41.34330000021453],[-124.22003200032205,41.30299400003647],[-124.16070399987096,41.28929299984762],[-124.19553199964326,41.184581999910115],[-124.23762500030837,41.16595900031888],[-124.25247400013956,41.13407499997357],[-124.22707899985836,41.046621999841214],[-124.1826939998481,41.00131300015717],[-124.1976189998473,40.95052899996432],[-124.23262200042011,40.869285999860914],[-124.40336699992156,40.613170000016936],[-124.482003000119,40.44031799968951]]]}},{"type":"Feature","properties":{"name":"Orange County","fips":"06059"},"geometry":{"type":"Polygon","coordinates":[[[-118.05903999961627,33.84619500018864],[-118.09197000022873,33.75847200031632],[-118.14780600033711,33.69408299981949],[-118.12590000002555,33.69715099968782],[-118.04984800014961,33.62001499976777],[-117.81635599964929,33.49087200011882],[-117.74140900033635,33.41011799995612],[-117.71357100019893,33.40877699991063],[-117.61108100030137,33.33399199965253],[-117.57851300008716,33.45380599987211],[-117.509499000425,33.470268000357436],[-117.51020999990439,33.53399899998804],[-117.41298700038404,33.65904500019685],[-117.47457299984511,33.703811000095264],[-117.53399900020548,33.71035500011273],[-117.53644799990948,33.75766500030549],[-117.58013599978572,33.76798799968991],[-117.6793030002933,33.877621000000104],[-117.78307500030586,33.946260000099926],[-117.97649799969766,33.94605000024009],[-117.97659300013218,33.90280999973437],[-118.05903999961627,33.84619500018864]]]}},{"type":"Feature","properties":{"name":"Merced County","fips":"06047"},"geometry":{"type":"Polygon","coordinates":[[[-120.59856400017954,36.99862999972284],[-120.47669200001747,37.09639000004823],[-120.34120399973537,37.12459599984985],[-120.28987199974797,37.1526150000043],[-120.05205500012511,37.18310800033845],[-120.09007800013919,37.22146999972688],[-120.17849300033245,37.2624199997498],[-120.38767000010192,37.633363999884125],[-120.98981100005022,37.39587099995703],[-120.96381200041975,37.34614399964867],[-121.2268040002158,37.13477400018037],[-121.21733900003935,37.123041999708825],[-121.24548400032342,37.08914799972797],[-121.20819799972799,37.06128899971052],[-121.24864699987984,37.03367999974432],[-121.23333699991616,37.0117460002841],[-121.2465680000717,36.98522799986585],[-121.2117329997284,36.95737999997956],[-121.23433199997599,36.92614699986867],[-121.18429700017222,36.90897299993296],[-121.14152300016494,36.83665599980725],[-120.91873100010041,36.740381000089876],[-120.65595000019154,36.95283199970101],[-120.59056600006603,36.95264099975198],[-120.59856400017954,36.99862999972284]]]}},{"type":"Feature","properties":{"name":"Trinity County","fips":"06105"},"geometry":{"type":"Polygon","coordinates":[[[-122.9982479997774,40.41820800011305],[-122.90113700041005,40.44561100032389],[-122.84595400005473,40.5051809998982],[-122.79325200008876,40.51451799968191],[-122.76745500012464,40.55517299982043],[-122.69307500035103,40.57533800012417],[-122.75226599963648,40.689642000038084],[-122.72235799991174,40.69547300012351],[-122.70657099992212,40.725331000208584],[-122.71740699990204,40.74718200023472],[-122.65809299969463,40.787503999942935],[-122.66605800019616,40.82587500008099],[-122.60001299992166,40.90034300030497],[-122.6127510001577,40.9212449998119],[-122.59852800031537,40.97584699971516],[-122.52775299996408,41.01439500015547],[-122.52316600000243,41.059207999767864],[-122.53977499979953,41.072605000092004],[-122.45714400019246,41.096611000086064],[-122.44857199996862,41.118240000158515],[-122.4460229998072,41.15924099986369],[-122.49773499973621,41.17857199969291],[-122.522636000273,41.21352499995662],[-122.51333000010521,41.283680000067946],[-122.47877099994643,41.32008500020919],[-122.50389000004316,41.34298499970156],[-122.53581800002472,41.34152300010033],[-122.5726789995744,41.36798299997934],[-122.58905200026828,41.326836999817125],[-122.64212800032807,41.32660800029342],[-122.65287600044444,41.28973500006114],[-122.71195700012501,41.27479000033371],[-122.7252950004107,41.24746599987631],[-122.80210899981964,41.203048000260445],[-122.88592100015772,41.20514199981987],[-122.92917100036604,41.178690999975544],[-122.96134700004477,41.1815249998617],[-122.95166400030844,41.150319999744234],[-122.97097000040495,41.0901599998045],[-122.92332800022864,41.07195199985898],[-122.89736300003503,41.029180000073985],[-122.91752899957386,40.99398999978851],[-122.98013099990949,41.01431400004994],[-123.03711799971333,41.00417599994232],[-123.05518299970272,41.046706000091625],[-123.10907700027033,41.07542900012746],[-123.23947999975006,41.07576299988831],[-123.2950649997883,41.14065000027855],[-123.35323699962277,41.16305399989667],[-123.38119199993605,41.15128999986631],[-123.40765900027,41.18011000030984],[-123.43260799958905,41.16232800018708],[-123.4398059996364,41.092541000311364],[-123.46422199975132,41.094408000046215],[-123.45794199977091,41.06821499974141],[-123.42327200018235,41.05815699966513],[-123.40709199983233,41.029723000136556],[-123.45325799972488,40.96415300003657],[-123.44795600008587,40.943758000054245],[-123.48175700001127,40.91485700025119],[-123.56016300005497,40.950256999828866],[-123.58786099955198,40.92775499988497],[-123.62366199964278,40.929823000138384],[-123.5972110001007,40.88410400016702],[-123.6102499997373,40.87897200007426],[-123.56305899964768,40.84041699971457],[-123.56625300006456,40.78881000025002],[-123.54301500030758,40.7335780000369],[-123.54456299966307,39.97701500001881],[-122.93401299969749,39.97813099972069],[-122.951860000127,39.99882699997242],[-122.95091399957268,40.05591400031914],[-122.97315899981795,40.07716700001886],[-122.96856799965833,40.13903299973792],[-122.98961399962926,40.14512599992172],[-122.97006400003357,40.18630599967154],[-122.97754999996103,40.24128500000776],[-123.06600899963688,40.28568800007693],[-123.06548399993034,40.34509900004626],[-123.01829600021377,40.3724069998472],[-122.9982479997774,40.41820800011305]]]}},{"type":"Feature","properties":{"name":"Monterey County","fips":"06053"},"geometry":{"type":"Polygon","coordinates":[[[-122.05187799979564,36.81960000017198],[-122.00112400011655,36.647704000342465],[-122.04404999956147,36.57824900010396],[-121.97039100021131,36.38336800000014],[-121.95905300009106,36.28710799969857],[-121.88019299958762,36.21031400003133],[-121.7278119998263,36.12900899983623],[-121.63181799981919,35.978944999764956],[-121.56146099994264,35.94381799971386],[-121.51919200044877,35.86340000001016],[-121.43817600014431,35.79665500035294],[-120.21397899988068,35.78927599975729],[-120.21990599968366,35.81891500009978],[-120.25930200004935,35.84505300028033],[-120.24327499986018,35.87766900004239],[-120.2757600002337,35.905880999998836],[-120.32291600016322,35.90781799990716],[-120.36040199987688,35.964417999899226],[-120.43436099970098,35.96944399998736],[-120.58786600029188,36.066627999724915],[-120.59936599989554,36.10087799977598],[-120.64610800044657,36.1047449998153],[-120.67203500010703,36.164270999802476],[-120.62691000030507,36.203227000090656],[-120.70195500042563,36.28615699994099],[-120.75833999963169,36.30860399986172],[-120.70742899959373,36.23178500001572],[-120.71816900021251,36.196847999825025],[-120.76129300002414,36.203387999714344],[-120.85141600030477,36.2858699999358],[-120.91905800033854,36.31086300033018],[-120.95343199965107,36.27470600028365],[-120.98579999984875,36.292937000152136],[-120.99241499956489,36.2699209997121],[-121.02732199987823,36.25994300010933],[-121.04079700043123,36.32396899990086],[-121.22951099966262,36.47527699978521],[-121.23929499968128,36.50478199967234],[-121.30936100020303,36.499862000088356],[-121.29536199976837,36.527128999972454],[-121.33201599962881,36.56216000023617],[-121.31837299974462,36.61002600007094],[-121.34231400038169,36.63952300029557],[-121.46902299985236,36.685433999702354],[-121.48450799971822,36.71306199995679],[-121.45307199983118,36.72119799976499],[-121.46011699971764,36.7411499996514],[-121.62208900005211,36.84620299996296],[-121.65522700017871,36.912863000161174],[-121.74528799963673,36.90934099988428],[-121.81467000044324,36.84951699969779],[-122.05187799979564,36.81960000017198]]]}},{"type":"Feature","properties":{"name":"Amador County","fips":"06005"},"geometry":{"type":"Polygon","coordinates":[[[-121.02770600001777,38.500106000231824],[-121.02708400022686,38.30025200004766],[-120.99549699982877,38.22540200000241],[-120.89379199992875,38.22127699991298],[-120.80774000012407,38.28872299985539],[-120.75491400030954,38.288266000337124],[-120.63178299959867,38.3399470002216],[-120.6087359996374,38.39753800015237],[-120.5301299995772,38.4188839996585],[-120.4953639997292,38.44960700018341],[-120.46140399979511,38.44617099983582],[-120.42321500009967,38.47332200003193],[-120.3310399997751,38.46519199992671],[-120.20940500033781,38.500756999658435],[-120.07248400032799,38.50986900029605],[-120.07239200026648,38.7027669997786],[-120.1120089996668,38.70501600019772],[-120.14008399963068,38.63837400034479],[-120.2143039995707,38.629082000216364],[-120.23384900004181,38.58831599999007],[-120.3171419996228,38.545110000270874],[-120.60615700023709,38.50234900021845],[-120.81355399994916,38.56219299971099],[-120.87631500029345,38.54327100017472],[-120.886064000152,38.52471999988811],[-121.00571500021573,38.51953900005884],[-121.02770600001777,38.500106000231824]]]}},{"type":"Feature","properties":{"name":"San Bernardino County","fips":"06071"},"geometry":{"type":"Polygon","coordinates":[[[-115.3160650001434,34.07784300003933],[-114.43542900009152,34.07972700034741],[-114.41167999997339,34.11003099998684],[-114.22971500035247,34.18692800026988],[-114.16464800041935,34.25969899986284],[-114.13326400041086,34.258462000124496],[-114.13828200036775,34.30322999991018],[-114.1769089997311,34.34930599987107],[-114.22610699965881,34.36591600032316],[-114.33537200000443,34.450037999641516],[-114.38669899996896,34.457910999700864],[-114.38083800028821,34.52972400027739],[-114.43680999994072,34.59607400014771],[-114.42420200029936,34.610453000316596],[-114.47047699997185,34.71136799966876],[-114.55268199960658,34.76687100019022],[-114.58684199955721,34.835672000207055],[-114.63438199962626,34.872889999958105],[-114.63348700002383,35.00185699992408],[-115.64835699983186,35.80921100011204],[-115.73574500017823,35.80909699968448],[-115.73589099976812,35.79361999984216],[-117.63428300007332,35.79726000033605],[-117.63431499986038,35.70983000002177],[-117.65213600035061,35.70985800015096],[-117.65218400003118,35.680770999817526],[-117.61651799965959,35.68068700013364],[-117.61651799965959,35.651610999971574],[-117.63434599982251,35.651571000188966],[-117.63215099966344,34.822271000098105],[-117.66745899983475,34.822528000087225],[-117.64637400040408,34.28917000013023],[-117.73012499974445,34.021371000000805],[-117.76765700038719,34.02350799976037],[-117.80253899968784,33.975550999741415],[-117.6730450000542,33.87106699988712],[-117.65515699961682,33.92485400024885],[-117.61095400007976,33.92415199970457],[-117.6109430002091,33.97180700012527],[-117.55837699978724,33.98841999981365],[-117.55831200038824,34.03345099967626],[-117.37534400031156,34.03387500025929],[-117.37541600028156,34.01939899997462],[-117.22553299972974,34.017966000182895],[-117.22537299989617,34.00418900031153],[-116.92935699977635,34.00491400028577],[-116.92955799961778,34.03411300037081],[-115.31621199955819,34.03411000028599],[-115.3160650001434,34.07784300003933]]]}},{"type":"Feature","properties":{"name":"Ventura County","fips":"06111"},"geometry":{"type":"MultiPolygon","coordinates":[[[[-119.44041399984025,34.4418420002133],[-119.4456400002096,34.40425699992196],[-119.50095300026126,34.326922000336836],[-119.46699499997702,34.293660000174754],[-119.3344619997372,34.2365300000048],[-119.28574300038362,34.140804999767674],[-119.21799300039478,34.062490999808446],[-118.98320600025896,33.99945699974584],[-118.95172099996816,33.99285799970361],[-118.94096500035418,34.07482999964386],[-118.78888900019139,34.16821399973292],[-118.66815199983122,34.16819499979774],[-118.66771400016331,34.240344999983385],[-118.63249399985554,34.2403910002915],[-118.63678899973914,34.29180399966083],[-118.88040500001678,34.7886550001579],[-118.97802199972242,34.789808999857996],[-118.97792600036128,34.81171399974278],[-119.24253400018316,34.81432300031211],[-119.24258100003884,34.85759800030991],[-119.38185399966827,34.8739899998072],[-119.38370499987076,34.90081700022271],[-119.4436910000978,34.90117100006836],[-119.44041399984025,34.4418420002133]]],[[[-119.46806399965668,34.06313899972849],[-119.49228999980079,33.983214999674786],[-119.4726470003187,33.97064699964954],[-119.38045600010061,33.95361100034505],[-119.31161499979248,33.98002299974156],[-119.29311200013515,34.020152000325574],[-119.34246200039884,34.06896399996322],[-119.45126099969082,34.06643500001418],[-119.46806399965668,34.06313899972849]]],[[[-119.63606800027443,33.28071299979878],[-119.60528199976743,33.206919000058],[-119.51200099995324,33.1677550000108],[-119.39453599982781,33.1808360001504],[-119.36070200029043,33.22145200026322],[-119.37972999965429,33.26763200031998],[-119.51913799990125,33.33370000034756],[-119.59922199989506,33.32327599981157],[-119.63606800027443,33.28071299979878]]]]}},{"type":"Feature","properties":{"name":"Yolo County","fips":"06113"},"geometry":{"type":"Polygon","coordinates":[[[-121.62636399984422,38.7852110000581],[-121.67382600009549,38.74314100032235],[-121.69067099989417,38.79562700028221],[-121.72267500004374,38.802717999791355],[-121.72957000014237,38.858427000079935],[-121.80237300024818,38.86458199991533],[-121.817237000148,38.8828740002507],[-121.79150899978086,38.90540199998233],[-121.83548799991023,38.92448099982272],[-122.40403200014767,38.925288999650924],[-122.4219520003721,38.90356200031252],[-122.371551999797,38.84465100007051],[-122.28706800033761,38.83935099994738],[-122.22216899973566,38.698559999809866],[-122.16609599980079,38.65517799972437],[-122.16645999984887,38.619662000000055],[-122.14935099956125,38.625461999785315],[-122.13438700010231,38.60463399973763],[-122.10412799985001,38.51336200032574],[-122.05741499961128,38.51744099979119],[-122.01354199978711,38.48870999985326],[-121.94107199976725,38.53325699999228],[-121.78581100030674,38.52307399995426],[-121.71203400005749,38.53796199998321],[-121.69467700007276,38.52705400025624],[-121.69369700008153,38.31373200000493],[-121.5932729995733,38.31308899976071],[-121.52100099992013,38.361224000092136],[-121.51325700024987,38.398822000259784],[-121.53260000015631,38.431459999700635],[-121.50384700032502,38.43961400003514],[-121.50413900040304,38.46656299975002],[-121.55903599962981,38.49959199998477],[-121.52437199988904,38.52007799967867],[-121.50626900026481,38.58630499983707],[-121.51576600022828,38.60270400008797],[-121.54986900027751,38.59940499980684],[-121.56686800006196,38.645103999651035],[-121.59406900033981,38.64410600034486],[-121.63113400010398,38.67901200013128],[-121.59340599964268,38.75398500003318],[-121.59983799995908,38.77487600022449],[-121.62636399984422,38.7852110000581]]]}},{"type":"Feature","properties":{"name":"Marin County","fips":"06041"},"geometry":{"type":"Polygon","coordinates":[[[-122.61228500000237,37.815224000352075],[-122.41867299956641,37.8525049996686],[-122.44158399998354,37.97392299981534],[-122.3474539996994,38.073260000074065],[-122.50190300029651,38.11242400018532],[-122.57059100044376,38.187117000053995],[-122.63578399987524,38.178648999790575],[-122.73989999984441,38.20701799988685],[-122.9081050003036,38.320752000147635],[-123.00272799960892,38.2957099998186],[-123.13452299970685,38.29626299996018],[-123.04961699957477,38.214285999677955],[-123.01481700028985,38.14913200032965],[-123.08512999978548,38.008432999682825],[-123.06796500031967,37.95866899973872],[-122.95322400025779,37.94109300034963],[-122.90228399990752,37.97738600016847],[-122.72431100022149,37.847679999932204],[-122.67565399989387,37.84851699968715],[-122.61228500000237,37.815224000352075]]]}},{"type":"Feature","properties":{"name":"Alameda County","fips":"06001"},"geometry":{"type":"Polygon","coordinates":[[[-122.3731209999672,37.88388400016003],[-122.28178000004398,37.708229999648104],[-122.10957400032737,37.49763699978767],[-122.0519310003974,37.45925099971012],[-121.94491399991432,37.46916300008397],[-121.92504100027844,37.45418599980327],[-121.8652669997635,37.484637000190375],[-121.47119799991995,37.48282899977174],[-121.50147499971561,37.525002999833184],[-121.5566549996979,37.542732000344024],[-121.55699700000466,37.816487999752084],[-121.96003999975497,37.71853099973994],[-122.01177099995056,37.74742800021725],[-121.99741099984091,37.7633600003543],[-122.04547300014178,37.79812599997185],[-122.1855769997995,37.82072599998418],[-122.21764000039865,37.87224999990049],[-122.2640270002241,37.90377499976112],[-122.3731209999672,37.88388400016003]]]}},{"type":"Feature","properties":{"name":"Siskiyou County","fips":"06093"},"geometry":{"type":"Polygon","coordinates":[[[-122.47877099994643,41.32008500020919],[-122.5139700003378,41.28015199985937],[-122.522636000273,41.21352499995662],[-122.4983759997937,41.18267500028956],[-121.44649499974986,41.1834840002755],[-121.4475380003886,41.99746499995102],[-123.51791100027951,42.00075600029315],[-123.54093399995132,41.98531299995529],[-123.53325100038042,41.95516900024532],[-123.5594919998602,41.90596799980886],[-123.59360999997804,41.90625199979278],[-123.60630100035843,41.88077299984851],[-123.64219100013769,41.88974200013375],[-123.67077999993745,41.83543199984685],[-123.70368100023761,41.82948700007156],[-123.67210999973305,41.795989999997744],[-123.68834000031178,41.781221000046926],[-123.66020500007347,41.714055000155525],[-123.68958300006875,41.66943399978764],[-123.68044400030556,41.633956999849985],[-123.71908900011056,41.59525799997674],[-123.68231999972409,41.59487499986246],[-123.69388700017319,41.55185799970779],[-123.64804599997066,41.535024000075246],[-123.6377709996823,41.48238199976717],[-123.61162700028687,41.46157099987197],[-123.66136300033992,41.38208999978086],[-123.48101399984651,41.37198600003233],[-123.46279099967339,41.28420099995773],[-123.44381400036313,41.27323399971508],[-123.45490700026103,41.23566899993151],[-123.38119199993605,41.15128999986631],[-123.35323699962277,41.16305399989667],[-123.2950649997883,41.14065000027855],[-123.24522199960514,41.077987000288665],[-123.10907700027033,41.07542900012746],[-123.05518299970272,41.046706000091625],[-123.03711799971333,41.00417599994232],[-122.98013099990949,41.01431400004994],[-122.91752899957386,40.99398999978851],[-122.89736300003503,41.029180000073985],[-122.92332800022864,41.07195199985898],[-122.97097000040495,41.0901599998045],[-122.95166400030844,41.150319999744234],[-122.96134700004477,41.1815249998617],[-122.92917100036604,41.178690999975544],[-122.88592100015772,41.20514199981987],[-122.80210899981964,41.203048000260445],[-122.7252950004107,41.24746599987631],[-122.71195700012501,41.27479000033371],[-122.65287600044444,41.28973500006114],[-122.64212800032807,41.32660800029342],[-122.58905200026828,41.326836999817125],[-122.5726789995744,41.36798299997934],[-122.47877099994643,41.32008500020919]]]}},{"type":"Feature","properties":{"name":"Inyo County","fips":"06027"},"geometry":{"type":"Polygon","coordinates":[[[-118.79003099966597,37.394031999783685],[-118.76767699964077,37.367662999787385],[-118.78010699990523,37.33487299975396],[-118.74111800014362,37.31533799978041],[-118.71601599976539,37.328208000130736],[-118.66533200040648,37.26191700000633],[-118.68642400040815,37.22757499980186],[-118.65459299961262,37.14182600009958],[-118.59266099964684,37.13814699980462],[-118.43713700042058,37.059818000191754],[-118.41953299966532,36.98743500018594],[-118.36083100010141,36.887733999828974],[-118.36216900029294,36.84400200000168],[-118.39372400000563,36.82966799975652],[-118.36923000007292,36.75003400022243],[-118.33602900019716,36.716333999989175],[-118.36612799971753,36.69043499987359],[-118.33122700015034,36.66943399966654],[-118.32132599995579,36.62743400033348],[-118.27462399958773,36.59733399964113],[-118.29122300023742,36.5593350000631],[-118.23882099984709,36.52363499984345],[-118.24991999959272,36.48243499975968],[-118.21561999990006,36.45633599970222],[-118.21441999980081,36.43433600002025],[-118.14121900021006,36.42093599998095],[-118.16291899975899,36.38943599999376],[-118.10031700032168,36.3461369999887],[-118.12760100044025,36.2803479997787],[-118.10561599958764,36.21343899988767],[-118.05931499997588,36.170139999898204],[-118.06731300008938,36.0934420002675],[-118.03361099989819,36.00894400036153],[-118.00357699977678,35.983718000207816],[-118.01679100021389,35.954551000347536],[-117.98328700038938,35.926562999788906],[-117.9807609997942,35.86751499966871],[-118.00741800009895,35.85817999983155],[-118.00809400031656,35.78893500009301],[-115.73589099976812,35.79361999984216],[-115.73574500017823,35.80909699968448],[-115.64835699983186,35.80921100011204],[-117.83272599997011,37.46492899976013],[-118.77501399960528,37.463051999995216],[-118.759580999618,37.43557300021458],[-118.79003099966597,37.394031999783685]]]}},{"type":"Feature","properties":{"name":"Butte County","fips":"06007"},"geometry":{"type":"Polygon","coordinates":[[[-122.06943099959898,39.84052999978526],[-122.06392999976833,39.81063399981072],[-122.02418199994847,39.798511999910204],[-122.02456000024023,39.76794200032216],[-121.98217600022029,39.73390199986893],[-121.96379599968832,39.741398000327905],[-121.96252399961905,39.71774100028882],[-121.94693699964594,39.73065300001685],[-121.94491499973924,39.69091900014608],[-121.99734800009169,39.66848300013827],[-121.96662299968408,39.65244400034078],[-121.99082899973672,39.63653899973466],[-121.9794039995778,39.617159000226245],[-122.00324300010764,39.574814999999305],[-121.99402099960543,39.53392599989034],[-121.85653200023134,39.536903999882824],[-121.87734100037584,39.509549000134996],[-121.87077000014227,39.448713000080424],[-121.90826900027471,39.30387799975877],[-121.62376000032955,39.29562099972342],[-121.61117699990422,39.319279999811855],[-121.56369999958436,39.304938000228475],[-121.40752699990468,39.339753999666414],[-121.3340710000458,39.425802000293324],[-121.34513899982932,39.45256700014551],[-121.31478699969058,39.475899000080965],[-121.3051220003959,39.519585000006565],[-121.1592960000763,39.51959500020976],[-121.149897999847,39.555288999668825],[-121.07954299962026,39.58526299986165],[-121.09753800018778,39.62090300014623],[-121.13671500027036,39.62816900011113],[-121.13641200032164,39.65681000017403],[-121.20868700034784,39.7003579999805],[-121.21087800030895,39.72565099966329],[-121.2858520002844,39.76762399996327],[-121.3612060002014,39.85547300021104],[-121.41193599959108,39.87142100028426],[-121.4109999999808,39.90042500003543],[-121.42995700009787,39.900312999665104],[-121.41100099980572,39.91509100031599],[-121.41948000014315,40.01576599983886],[-121.36714200022524,40.071887999674],[-121.37648900040092,40.10862599977082],[-121.40485499971962,40.11554499968442],[-121.4045090001132,40.15164800025395],[-121.43688599963338,40.151904999780236],[-121.45289799975392,40.12212500017315],[-121.51055900012554,40.10051499987195],[-121.58640699978699,40.10052199971973],[-121.64603200033899,39.98252699972647],[-121.70324099990069,39.98422999970697],[-121.77622399993155,39.88885799990411],[-122.04486499969623,39.883770999969606],[-122.06943099959898,39.84052999978526]]]}},{"type":"Feature","properties":{"name":"Fresno County","fips":"06019"},"geometry":{"type":"Polygon","coordinates":[[[-119.66675099995095,36.418753999699376],[-119.46632200013245,36.575237999735],[-119.30510200018358,36.57372500027604],[-119.3046250001576,36.66060599973955],[-118.9847789997288,36.65714699999665],[-118.98244100035289,36.74164599993917],[-118.36058599987905,36.744772999677075],[-118.39372400000563,36.82966799975652],[-118.36216900029294,36.84400200000168],[-118.36083100010141,36.887733999828974],[-118.44128599981602,37.063854999668926],[-118.59266099964684,37.13814699980462],[-118.6671869999086,37.154640000257544],[-118.68642400040815,37.22757499980186],[-118.66533200040648,37.26191700000633],[-118.71601599976539,37.328208000130736],[-118.74111800014362,37.31533799978041],[-118.78673599986507,37.34338000004328],[-118.76814799981895,37.36117800015315],[-118.79003099966597,37.394031999783685],[-118.76328700022091,37.45653699965272],[-118.79709700036717,37.488712000059216],[-118.85604900017634,37.478394999749256],[-118.9170599997021,37.55033599979566],[-118.97695999971542,37.55683699996487],[-119.02206299977608,37.58583700006363],[-119.3121860004281,37.35272500029284],[-119.33542300036017,37.3112100000901],[-119.33008099963988,37.20742899973798],[-119.36191599973507,37.16784900016678],[-119.3888480003994,37.14921500013565],[-119.43212500037193,37.16257100025698],[-119.46263399997115,37.14421100031772],[-119.47480700031767,37.10996300004762],[-119.50604800021102,37.15034499974427],[-119.52497500019085,37.128233999712414],[-119.56083900003087,37.14290100021279],[-119.56856599998272,37.116688999891394],[-119.53759200005307,37.10506700023618],[-119.56143200040778,37.065485000154695],[-119.60490799967363,37.071015999653],[-119.62111599961273,37.026604999757254],[-119.64945599989048,37.04349700023461],[-119.65861100044555,37.01333000034202],[-119.69807499968495,37.008748000063136],[-119.81389799984532,36.85015200004472],[-119.88617899971929,36.859198999709584],[-119.94350700000498,36.83402999973142],[-119.98583099975046,36.840472000171594],[-120.02777499955434,36.814504999644114],[-120.07945800006934,36.8253450001374],[-120.1727239998149,36.80287100018873],[-120.18970699970582,36.776144000257815],[-120.20707600028443,36.79090499997157],[-120.22992200040426,36.76905500033078],[-120.29059399999632,36.76304700004707],[-120.34766399964084,36.79816199999202],[-120.34512399970026,36.78504900023245],[-120.37071499980006,36.78520399974105],[-120.36922599999583,36.810068999968784],[-120.45549299988565,36.861946000043915],[-120.46675200036319,36.892193000074926],[-120.45040299995875,36.91282700013424],[-120.5029839995509,37.00062899998871],[-120.54526499963868,37.02693599985505],[-120.54169600020138,37.04450500024867],[-120.59856400017954,36.99862999972284],[-120.59056600006603,36.95264099975198],[-120.65595000019154,36.95283199970101],[-120.91873100010041,36.740381000089876],[-120.59715499984293,36.488234999876376],[-120.59656200036432,36.32848799965787],[-120.68283400027703,36.294264000123874],[-120.6797410001425,36.24666500001914],[-120.62691000030507,36.203227000090656],[-120.67203500010703,36.164270999802476],[-120.64878399993125,36.10799000033236],[-120.59936599989554,36.10087799977598],[-120.58786600029188,36.066627999724915],[-120.43436099970098,35.96944399998736],[-120.36040199987688,35.964417999899226],[-120.31871900018892,35.906914000095696],[-119.95891599970287,36.1814139998364],[-119.95922700004749,36.4009750002711],[-119.75311400010025,36.401894000238194],[-119.67158300013499,36.4310689997418],[-119.66675099995095,36.418753999699376]]]}},{"type":"Feature","properties":{"name":"Sonoma County","fips":"06097"},"geometry":{"type":"Polygon","coordinates":[[[-122.54389300013115,38.51996599966089],[-122.64660999980943,38.59911300011579],[-122.62319499960215,38.662545999753284],[-122.63704900027183,38.693730000120226],[-122.69545100026006,38.7130899996861],[-122.74817699961717,38.803828000119076],[-122.8176509995869,38.84983900020142],[-123.08099700028357,38.85243800027094],[-123.0812299999121,38.838406000135926],[-123.13663599985016,38.839447999908664],[-123.13625300043384,38.809136000087946],[-123.36839400032385,38.806639999720794],[-123.36823600014013,38.777065999747364],[-123.63249699963237,38.758118999870796],[-123.51058000016278,38.68089000007256],[-123.36092900031284,38.510201999756156],[-123.2202199996843,38.44195400018592],[-123.13431199981967,38.345785999952355],[-123.13452299970685,38.29626299996018],[-123.00272799960892,38.2957099998186],[-122.9081050003036,38.320752000147635],[-122.73989999984441,38.20701799988685],[-122.63578399987524,38.178648999790575],[-122.57059100044376,38.187117000053995],[-122.50190300029651,38.11242400018532],[-122.3474539996994,38.073260000074065],[-122.40751199989647,38.157812999869016],[-122.367560999687,38.15879200002848],[-122.34956400036798,38.19397199976539],[-122.36530600015179,38.245986000066424],[-122.40473699977926,38.28169999967922],[-122.39629500015008,38.30909200020242],[-122.49791100036161,38.4245750001612],[-122.47983499960324,38.45127199998348],[-122.5296049999915,38.46957000025342],[-122.54389300013115,38.51996599966089]]]}},{"type":"Feature","properties":{"name":"Sacramento County","fips":"06067"},"geometry":{"type":"Polygon","coordinates":[[[-121.47571799993445,38.258090000098214],[-121.39843099979917,38.2274249996943],[-121.34436700025054,38.228210000244395],[-121.02708400022686,38.30025200004766],[-121.02742399998546,38.508144999656146],[-121.1190489995908,38.71786299993136],[-121.1337819999694,38.70538600008621],[-121.60289400028367,38.73583800004693],[-121.63019000009778,38.677444999848916],[-121.59406900033981,38.64410600034486],[-121.56686800006196,38.645103999651035],[-121.54986900027751,38.59940499980684],[-121.50740200041692,38.5920000001573],[-121.52413300041273,38.52049800012611],[-121.55903599962981,38.49959199998477],[-121.50413900040304,38.46656299975002],[-121.50384700032502,38.43961400003514],[-121.53260000015631,38.431459999700635],[-121.51325700024987,38.398822000259784],[-121.52100099992013,38.361224000092136],[-121.5847759996925,38.330821999880975],[-121.60517999978101,38.29608399977901],[-121.61210199964384,38.20006800004138],[-121.68564500043968,38.15964400023061],[-121.71088800038493,38.0864889999193],[-121.80012299983751,38.05964700026922],[-121.84244400010823,38.07673499995367],[-121.85959699987849,38.07113500003612],[-121.8615970000439,38.06988699969502],[-121.86246200040738,38.066029999773605],[-121.81817500030644,38.022190000149045],[-121.77748500013016,38.01891700001282],[-121.69976500034983,38.0452199997198],[-121.67306500038738,38.093517999671555],[-121.56718400042945,38.09732100016009],[-121.58407400043394,38.12022799987336],[-121.53631000005889,38.15158100012618],[-121.5063899997403,38.224586999818804],[-121.47571799993445,38.258090000098214]]]}},{"type":"Feature","properties":{"name":"Santa Barbara County","fips":"06083"},"geometry":{"type":"MultiPolygon","coordinates":[[[[-120.73432699992291,34.90475099986714],[-120.72031900016576,34.86924100026268],[-120.67328100023704,34.838624000133656],[-120.70209299961955,34.748328999864526],[-120.66469099957149,34.696343999830596],[-120.70718300044477,34.61621099984044],[-120.70795099982558,34.5548979998837],[-120.6560580001466,34.508597999749014],[-120.5594389999755,34.4884659999047],[-120.50099900035242,34.403136000291774],[-120.45099799998552,34.391184000058836],[-120.13512000010047,34.42206099993322],[-120.02435599990486,34.40934300017816],[-119.88387399995537,34.35614399984413],[-119.79706700029038,34.36533100021064],[-119.71364400011471,34.33602899988555],[-119.61746199978666,34.36873000033985],[-119.50095300026126,34.326922000336836],[-119.4456400002096,34.40425699992196],[-119.4436910000978,34.90117100006836],[-119.5357569997441,34.89757599963299],[-119.67316300017582,34.973474999989435],[-119.78929199975963,34.98867000002224],[-119.85451699987647,35.032149000321674],[-119.90196800025709,35.03579300028533],[-119.92841899979916,35.059793999635374],[-119.98012200040567,35.05757299964414],[-120.08208400022363,35.11467800004009],[-120.14317000009251,35.09573899966562],[-120.20990699957983,35.020581999717976],[-120.32382300035952,35.01731399996177],[-120.33392200002245,34.99563100025546],[-120.29454800029639,34.94659399969403],[-120.30182699963629,34.90557100007826],[-120.44024999986912,34.988322999922744],[-120.49622200041996,34.993154999936564],[-120.63414400033741,34.959562000271376],[-120.70279499977643,34.99997500025994],[-120.73432699992291,34.90475099986714]]],[[[-119.11717399987633,33.505600000170574],[-119.1061539997734,33.44501199965713],[-119.07189300043879,33.413799000146255],[-118.98872600035617,33.42344099987618],[-118.96375100019951,33.46683000028263],[-118.9710069999732,33.510655000108976],[-119.00093200031465,33.5358950002164],[-119.07649700011886,33.53514799972351],[-119.11717399987633,33.505600000170574]]],[[[-120.58226400017892,34.10751700005004],[-120.56699500022313,34.068638000336634],[-120.52338699981452,34.051133000147914],[-120.51878399995935,34.01408000034203],[-120.48815099961323,33.984282999809416],[-120.36707299966952,33.96103600016035],[-120.29897299987634,33.96845700014846],[-120.22112800042254,33.88418700005774],[-120.11726599999825,33.84157999993442],[-119.93919000038008,33.89864300034493],[-119.90476199974255,33.939673999862926],[-119.82320800021107,33.8993900003207],[-119.53894899961283,33.947656000121384],[-119.49228999980079,33.983214999674786],[-119.46806399965668,34.06313899972849],[-119.54825099958266,34.1077830001533],[-119.61426800026808,34.09943199998979],[-119.65493099978183,34.07121799998499],[-119.75098099986543,34.112582000347565],[-119.91336400010366,34.13014799994412],[-119.96547100004287,34.11256000025989],[-119.99164299992573,34.06486800000989],[-120.04515400017871,34.09060599964286],[-120.25284600034185,34.05803099990813],[-120.35516100033723,34.145020999785665],[-120.4187870001467,34.16056900007583],[-120.47165399996912,34.13410199984374],[-120.53811799964494,34.15034400023896],[-120.58226400017892,34.10751700005004]]]]}},{"type":"Feature","properties":{"name":"Mono County","fips":"06051"},"geometry":{"type":"Polygon","coordinates":[[[-119.65137499986501,38.28663799976698],[-119.60455299984636,38.23883200032833],[-119.63267100036626,38.19885800034048],[-119.58562699969144,38.18437499986159],[-119.54681899967984,38.143268000287854],[-119.5064900000769,38.137112999768114],[-119.49649000014817,38.156652999938245],[-119.4598050003256,38.096277000325756],[-119.430546000156,38.116269000341454],[-119.34592200005619,38.08311300003179],[-119.30458999999749,38.0238910002201],[-119.31308900042643,37.95302400027169],[-119.20078299982482,37.887427000227305],[-119.216881999984,37.849628000111345],[-119.19618199961945,37.84402800031],[-119.21688100015908,37.81872799965714],[-119.20297999963374,37.795629000262515],[-119.25498100016605,37.75632899998126],[-119.26007799976564,37.72663099986979],[-119.21633299998798,37.71412299980988],[-119.18373899983455,37.73950400015774],[-119.11444599961479,37.72819500032645],[-119.0651659996713,37.68455599995578],[-119.02046299964375,37.583436999815426],[-118.97695999971542,37.55683699996487],[-118.9170599997021,37.55033599979566],[-118.85047399982751,37.47579600023058],[-118.8042739995998,37.488939000251165],[-118.77501399960528,37.463051999995216],[-117.83272599997011,37.46492899976013],[-119.58543699972066,38.71321200032618],[-119.61465800025542,38.66587900029534],[-119.62051700028634,38.61066900004091],[-119.54233200017559,38.48122099989035],[-119.57000899975621,38.43486000005182],[-119.56302800034216,38.40899899971693],[-119.62209300012923,38.39387500004058],[-119.60661999995894,38.36718199988643],[-119.63557500035492,38.35390799975334],[-119.65137499986501,38.28663799976698]]]}},{"type":"Feature","properties":{"name":"Tuolumne County","fips":"06109"},"geometry":{"type":"Polygon","coordinates":[[[-120.46374899974202,38.01039000001644],[-120.54308299989839,37.9768830000802],[-120.5133530004489,37.95794499995925],[-120.54235099960428,37.920445999756296],[-120.65327399980852,37.831857999869435],[-120.38761300020047,37.633704000244],[-120.37514399957799,37.652208000245246],[-120.39193099965031,37.683559000052114],[-120.30983800016855,37.65597700002183],[-120.34448000016803,37.726252999710724],[-120.28649400010639,37.729448999812696],[-120.2824119997598,37.74537900021835],[-120.26013999975035,37.73371600026383],[-120.23823199978897,37.76526400004311],[-120.18908099971694,37.767851999777776],[-120.17423000023588,37.79937300027983],[-120.12722599974403,37.78156599988918],[-120.07950800029805,37.82880800025988],[-119.93841399970505,37.763025999862],[-119.8682119996392,37.773225000346244],[-119.80780899966064,37.75502500035185],[-119.66720299986257,37.80122399971636],[-119.64860300012087,37.84502299973809],[-119.59936300036038,37.85991200010757],[-119.56299999985475,37.90252200025497],[-119.53569900001777,37.90412199968191],[-119.4742950001316,37.855622999910196],[-119.45149400021762,37.87102300000246],[-119.40729099978228,37.85492399977883],[-119.40268899975202,37.83522499994178],[-119.37551099993867,37.84087299966632],[-119.27177999993397,37.73922999966959],[-119.20158000041624,37.80052899985245],[-119.21688100015908,37.81872799965714],[-119.19618199961945,37.84402800031],[-119.216881999984,37.849628000111345],[-119.20078299982482,37.887427000227305],[-119.31308900042643,37.95302400027169],[-119.30458999999749,38.0238910002201],[-119.34592200005619,38.08311300003179],[-119.430546000156,38.116269000341454],[-119.4598050003256,38.096277000325756],[-119.49649000014817,38.156652999938245],[-119.5064900000769,38.137112999768114],[-119.54681899967984,38.143268000287854],[-119.58562699969144,38.18437499986159],[-119.63267100036626,38.19885800034048],[-119.60455299984636,38.23883200032833],[-119.65150899975932,38.286462000052666],[-119.63920499989158,38.32687999999558],[-119.70002899981962,38.365215000321456],[-119.71289299955406,38.418452000066935],[-119.8013920003112,38.40149299968194],[-119.8847490003646,38.356185000152266],[-120.01995100041643,38.43352099982663],[-120.15796299984723,38.38577600028016],[-120.37150999984337,38.149924000248504],[-120.46374899974202,38.01039000001644]]]}},{"type":"Feature","properties":{"name":"Solano County","fips":"06095"},"geometry":{"type":"Polygon","coordinates":[[[-121.8615970000439,38.06988699969502],[-121.80012299983751,38.05964700026922],[-121.71213000031698,38.08551999977622],[-121.68564500043968,38.15964400023061],[-121.61541300023657,38.195696000094614],[-121.60244300019697,38.22040999979857],[-121.5932729995733,38.31308899976071],[-121.6938920000752,38.31417500032535],[-121.69467700007276,38.52705400025624],[-121.71203400005749,38.53796199998321],[-121.78581100030674,38.52307399995426],[-121.94107199976725,38.53325699999228],[-122.01354199978711,38.48870999985326],[-122.05741499961128,38.51744099979119],[-122.10412799985001,38.51336200032574],[-122.12613600026881,38.42746100014558],[-122.06161300030885,38.326130000005065],[-122.20606799992665,38.31577499997773],[-122.18819899975587,38.27173000025985],[-122.2165950001101,38.26465999991805],[-122.19328100018514,38.25641500000841],[-122.21193199998044,38.250799999967874],[-122.19300900019859,38.223116999879764],[-122.21508000036657,38.1797170000893],[-122.19538000008477,38.15501700022051],[-122.40696999957316,38.15564899993012],[-122.3474539996994,38.073260000074065],[-122.20084599975529,38.05793399975216],[-122.1589289997156,38.03324599994993],[-121.98315799986133,38.06729699993344],[-121.89332699965878,38.046184999807124],[-121.8615970000439,38.06988699969502]]]}},{"type":"Feature","properties":{"name":"Stanislaus County","fips":"06099"},"geometry":{"type":"Polygon","coordinates":[[[-120.98981100005022,37.39587099995703],[-120.38732899962005,37.633498999836604],[-120.65520500037698,37.833260000252906],[-120.92644899983142,38.07742099965496],[-120.92067400036441,37.73820999988398],[-120.99343300008927,37.760941000099336],[-121.03787199962785,37.73915999975042],[-121.11004899974478,37.742128000172386],[-121.11676999976616,37.72414699984604],[-121.17783999974148,37.70618999983116],[-121.1811770002735,37.68789100013344],[-121.22346599985886,37.683607999885574],[-121.23019100007816,37.662976000085756],[-121.4867749998473,37.47565200034543],[-121.46291699994924,37.45148899986032],[-121.47260600043167,37.42334499981697],[-121.45665100021253,37.39553500000409],[-121.40907500015845,37.380672000260724],[-121.42365000035328,37.35883699978716],[-121.40575299969505,37.310990000109044],[-121.45805100032831,37.2841390001064],[-121.45574999986404,37.24944000001525],[-121.42182199971701,37.221309999945596],[-121.39901900015322,37.1501350000743],[-121.36094199971247,37.18432100002276],[-121.32840899965836,37.16594999973729],[-121.28110700013899,37.183602999922684],[-121.2268040002158,37.13477400018037],[-120.96381200041975,37.34614399964867],[-120.98981100005022,37.39587099995703]]]}},{"type":"Feature","properties":{"name":"Nevada County","fips":"06057"},"geometry":{"type":"Polygon","coordinates":[[[-120.65502600027683,39.526844000155755],[-120.79999599955549,39.437674000116516],[-121.1274810000726,39.38023699982684],[-121.15753299973734,39.332467000001365],[-121.19561900039892,39.329582000226566],[-121.21837799958179,39.28418299970181],[-121.26613199991108,39.27271700028274],[-121.27953299994596,39.03461799984381],[-121.22098600019274,39.01177699998106],[-121.13797899994371,39.037911000011846],[-121.10424699961526,39.01185000019022],[-121.04160800036806,39.013791000258486],[-120.99177699988044,39.07581199965347],[-120.98914599970328,39.11153299988697],[-120.86884899955916,39.18073700030286],[-120.85171300040568,39.21203300015671],[-120.67143300040759,39.31037100010374],[-120.00632299970253,39.31649600019226],[-120.00377299971622,39.44505600033867],[-120.50544499984878,39.44611699986437],[-120.57785899979213,39.523270999797134],[-120.65502600027683,39.526844000155755]]]}},{"type":"Feature","properties":{"name":"San Francisco County","fips":"06075"},"geometry":{"type":"MultiPolygon","coordinates":[[[[-122.57518900027607,37.70672099977438],[-122.28178000004398,37.708229999648104],[-122.37378200011617,37.88372500002528],[-122.43228299983862,37.929824000068926],[-122.41867299956641,37.8525049996686],[-122.49909600039226,37.81988300012439],[-122.61228500000237,37.815224000352075],[-122.58817400038433,37.78936199975792],[-122.57518900027607,37.70672099977438]]],[[[-123.17382500036122,37.775727000337284],[-123.15675700008147,37.73783999974064],[-123.09285000006466,37.7136880003217],[-123.04069600026975,37.650328000140405],[-122.98674700034886,37.64178300019913],[-122.94136399990573,37.6765800002025],[-122.94998499963508,37.73218699997862],[-123.0704940003896,37.81383000024505],[-123.13227200036958,37.81967600023454],[-123.17382500036122,37.775727000337284]]]]}},{"type":"Feature","properties":{"name":"Modoc County","fips":"06049"},"geometry":{"type":"Polygon","coordinates":[[[-121.44649499974986,41.1834840002755],[-119.99986600017012,41.183974000326934],[-119.99923400033343,41.9949440002954],[-121.4475380003886,41.99746499995102],[-121.44649499974986,41.1834840002755]]]}},{"type":"Feature","properties":{"name":"Plumas County","fips":"06063"},"geometry":{"type":"Polygon","coordinates":[[[-120.79241199971875,39.70970499970592],[-120.71616700039729,39.70627999971462],[-120.67990699982383,39.676589999953926],[-120.65422700003559,39.70662899973759],[-120.14714899960862,39.707658000230715],[-120.14658000041945,39.736405999746346],[-120.12776300004447,39.73615900010676],[-120.11062699999266,39.76577899966512],[-120.09955599983613,39.910339000274824],[-120.10876099972155,39.939510000193195],[-120.20126400010916,40.01347400006646],[-120.20964100033936,40.08600800030712],[-120.24689000022657,40.08580500030782],[-120.24678800011931,40.107885000328686],[-120.26656100019606,40.11586900028785],[-120.37939900017689,40.12950999986451],[-120.44589200016509,40.176853999897936],[-120.45433100031954,40.20575100000695],[-120.4828480001493,40.20579800000096],[-120.51081699980797,40.24894500002394],[-120.5767290000131,40.26379600017189],[-120.57682500027255,40.28542999991369],[-120.7644029998771,40.3160099999572],[-120.79659600017258,40.30115300028459],[-120.79600000032093,40.277726000087796],[-120.87178199986015,40.24164000023739],[-120.87175699974577,40.199438000118406],[-120.92858200006623,40.19193099986973],[-120.94618799957298,40.22080800000961],[-121.00373199976873,40.22097499982349],[-121.0614929996995,40.25641700003568],[-121.06141700042981,40.44653599966086],[-121.49763500011667,40.44559099981331],[-121.47380599963259,40.424640999752995],[-121.47241999976049,40.35162000012547],[-121.38038300042652,40.3402879996592],[-121.34226400015298,40.309751000145575],[-121.37679999984724,40.297988999982344],[-121.34936699976575,40.27341799971241],[-121.36773499970386,40.2127279998404],[-121.44411100034321,40.190745000222556],[-121.4462079996947,40.15587400010313],[-121.4045090001132,40.15164800025395],[-121.40485499971962,40.11554499968442],[-121.36681800036015,40.08605400006707],[-121.41948000014315,40.01576599983886],[-121.41100099980572,39.91509100031599],[-121.42995700009787,39.900312999665104],[-121.4109999999808,39.90042500003543],[-121.41193599959108,39.87142100028426],[-121.3612060002014,39.85547300021104],[-121.2858520002844,39.76762399996327],[-121.13641200032164,39.65681000017403],[-121.13671500027036,39.62816900011113],[-121.07669499970811,39.597264000322035],[-120.9501369998502,39.67184400032631],[-120.93436599975408,39.73879199972998],[-120.87326099961864,39.7761679996823],[-120.81555199956644,39.74698099976122],[-120.79241199971875,39.70970499970592]]]}},{"type":"Feature","properties":{"name":"Lassen County","fips":"06035"},"geometry":{"type":"Polygon","coordinates":[[[-119.99986600017012,41.183974000326934],[-121.33178600037334,41.1838860001242],[-121.3278260002255,40.445366999977736],[-121.06141700042981,40.44653599966086],[-121.0614929996995,40.25641700003568],[-121.00373199976873,40.22097499982349],[-120.94618799957298,40.22080800000961],[-120.92858200006623,40.19193099986973],[-120.87175699974577,40.199438000118406],[-120.87178199986015,40.24164000023739],[-120.79600000032093,40.277726000087796],[-120.79659600017258,40.30115300028459],[-120.7644029998771,40.3160099999572],[-120.6521580002732,40.307655999865425],[-120.51081699980797,40.24894500002394],[-120.4828480001493,40.20579800000096],[-120.45433100031954,40.20575100000695],[-120.44589200016509,40.176853999897936],[-120.37939900017689,40.12950999986451],[-120.24678800011931,40.107885000328686],[-120.24689000022657,40.08580500030782],[-120.20964100033936,40.08600800030712],[-120.20126400010916,40.01347400006646],[-120.10876099972155,39.939510000193195],[-120.09955599983613,39.910339000274824],[-120.11062699999266,39.76577899966512],[-120.12776300004447,39.73615900010676],[-120.14658000041945,39.736405999746346],[-120.14714899960862,39.707658000230715],[-120.01573400035062,39.70872100014792],[-120.00106200007141,39.72241800002012],[-119.99770600017114,39.999905000194865],[-119.99986600017012,41.183974000326934]]]}},{"type":"Feature","properties":{"name":"Napa County","fips":"06055"},"geometry":{"type":"Polygon","coordinates":[[[-122.10363199955744,38.51216099976768],[-122.13438700010231,38.60463399973763],[-122.14935099956125,38.625461999785315],[-122.16645999984887,38.619662000000055],[-122.16609599980079,38.65517799972437],[-122.22216899973566,38.698559999809866],[-122.28759700024212,38.83996800015186],[-122.3507200000863,38.83586700016307],[-122.39559800001605,38.864300000262524],[-122.3755160001428,38.80831199982484],[-122.40440899971621,38.79863000008367],[-122.40305200015644,38.772982000001925],[-122.46411499956075,38.70613399968176],[-122.63348400013419,38.66929999997717],[-122.62829299992497,38.62303799980725],[-122.64661599965719,38.59809500031332],[-122.63183200012332,38.56936700003538],[-122.54389300013115,38.51996599966089],[-122.5296049999915,38.46957000025342],[-122.47983499960324,38.45127199998348],[-122.49791100036161,38.4245750001612],[-122.41203899958367,38.3342939998161],[-122.39461200017705,38.30472399973279],[-122.40473699977926,38.28169999967922],[-122.36530600015179,38.245986000066424],[-122.34956400036798,38.19397199976539],[-122.367560999687,38.15879200002848],[-122.40678600034849,38.155632000257754],[-122.19538000008477,38.15501700022051],[-122.21508000036657,38.1797170000893],[-122.19300900019859,38.223116999879764],[-122.21193199998044,38.250799999967874],[-122.19328100018514,38.25641500000841],[-122.2165950001101,38.26465999991805],[-122.18819899975587,38.27173000025985],[-122.20606799992665,38.31577499997773],[-122.0617320001345,38.325665999983265],[-122.12613600026881,38.42746100014558],[-122.10363199955744,38.51216099976768]]]}},{"type":"Feature","properties":{"name":"Sierra County","fips":"06091"},"geometry":{"type":"Polygon","coordinates":[[[-120.55586700016516,39.50873600016227],[-120.50544499984878,39.44611699986437],[-120.00377299971622,39.44505600033867],[-120.00106200007141,39.72241800002012],[-120.01573400035062,39.70872100014792],[-120.65422700003559,39.70662899973759],[-120.67990699982383,39.676589999953926],[-120.74951999971073,39.71960999999507],[-120.79241199971875,39.70970499970592],[-120.81555199956644,39.74698099976122],[-120.8707990003942,39.776877000187916],[-120.93436599975408,39.73879199972998],[-120.93996700004215,39.68680400024313],[-121.00947699999686,39.639459000258974],[-121.02438299972948,39.55904900023617],[-121.05820299992148,39.537042999848914],[-121.03440600012276,39.51450899974242],[-121.02208499963824,39.3915579997436],[-120.97862400044102,39.41781799973974],[-120.75623999990717,39.452474000282685],[-120.65502600027683,39.526844000155755],[-120.55586700016516,39.50873600016227]]]}},{"type":"Feature","properties":{"name":"Glenn County","fips":"06021"},"geometry":{"type":"Polygon","coordinates":[[[-122.93818299990764,39.748993000159885],[-122.91251599963987,39.748164999767134],[-122.9128760003883,39.7087230001219],[-122.89267599961595,39.70889799969619],[-122.88535200007023,39.580107999680095],[-122.735639000296,39.58066799965806],[-122.73906200014343,39.38326600021583],[-122.1360059996029,39.38549399973357],[-122.12562699955747,39.41459300016688],[-122.00885699991616,39.41356699969091],[-122.01020199978036,39.38394599994497],[-121.8900129995913,39.38386400023296],[-121.8751989999202,39.42791100021967],[-121.87734100037584,39.509549000134996],[-121.85653200023134,39.536903999882824],[-121.9740309997937,39.52885000016095],[-121.99827899967913,39.54246100006836],[-122.00324300010764,39.574814999999305],[-121.97955500008887,39.61479100010843],[-121.99082899973672,39.63653899973466],[-121.96662299968408,39.65244400034078],[-121.99734800009169,39.66848300013827],[-121.94158300012842,39.698112999735066],[-121.94828499988319,39.732215999753834],[-121.96252399961905,39.71774100028882],[-121.96379599968832,39.741398000327905],[-121.98217600022029,39.73390199986893],[-122.02456000024023,39.76794200032216],[-122.02649799958306,39.8001370002405],[-122.93765400000312,39.79815600011758],[-122.93818299990764,39.748993000159885]]]}},{"type":"Feature","properties":{"name":"Los Angeles County","fips":"06037"},"geometry":{"type":"MultiPolygon","coordinates":[[[[-118.0287820000872,33.87332200012302],[-117.97659300013218,33.90280999973437],[-117.97649799969766,33.94605000024009],[-117.78307500030586,33.946260000099926],[-117.80244499997649,33.96830800028641],[-117.7850329997402,34.004854000266036],[-117.76752500014268,34.00469499963628],[-117.76765700038719,34.02350799976037],[-117.73012499974445,34.021371000000805],[-117.64637400040408,34.28917000013023],[-117.66745899983475,34.822528000087225],[-118.85400899982793,34.81775799968413],[-118.87211999984807,34.80317099986356],[-118.89463399970687,34.81797199965825],[-118.63678899973914,34.29180399966083],[-118.63249399985554,34.2403910002915],[-118.66771400016331,34.240344999983385],[-118.66815199983122,34.16819499979774],[-118.78888900019139,34.16821399973292],[-118.94096500035418,34.07482999964386],[-118.95172099996816,33.99285799970361],[-118.87399799981478,33.98331399994817],[-118.80982700020729,33.9469049997301],[-118.72745900036594,33.98030700003159],[-118.55735599984855,33.987673000099925],[-118.44725399962687,33.848759999910904],[-118.4844830003209,33.80315400028705],[-118.46696200030462,33.725524000178126],[-118.31913499999466,33.65954699990723],[-118.27423899962326,33.663429000096556],[-118.23700800017772,33.69059499968973],[-118.14780600033711,33.69408299981949],[-118.0287820000872,33.87332200012302]]],[[[-118.66820299988483,33.48593700033742],[-118.6185739999619,33.406191000360344],[-118.54792900020527,33.37679899965462],[-118.5348849996475,33.31517599991921],[-118.4866879996274,33.27690500024327],[-118.32799300044881,33.24808300035281],[-118.24907500021905,33.28414199978804],[-118.25771400039008,33.36413099968951],[-118.3593930003508,33.464921999652496],[-118.52938200016705,33.531181999851654],[-118.6259159999493,33.52897800013751],[-118.66820299988483,33.48593700033742]]],[[[-118.6782039996385,33.03972600031096],[-118.67017299991305,33.00003399980337],[-118.64473199960106,33.00003300005441],[-118.55318599963844,32.828797000219765],[-118.46471199989396,32.76017600014616],[-118.4083219997667,32.75191400008343],[-118.32381900004071,32.77351400004761],[-118.2958410001612,32.79825600008065],[-118.29724999959952,32.84509399982284],[-118.44886299998004,32.9617500000783],[-118.54210299978632,33.073787999692456],[-118.63264199999355,33.08453899998504],[-118.6782039996385,33.03972600031096]]]]}},{"type":"Feature","properties":{"name":"Sutter County","fips":"06101"},"geometry":{"type":"Polygon","coordinates":[[[-121.61024999961644,39.05690699995863],[-121.58591800006543,39.09084300016501],[-121.6026780003736,39.10015800032052],[-121.61303700032754,39.19047899987281],[-121.62908899973273,39.20467799975733],[-121.61354699996546,39.21410999988818],[-121.63636799997091,39.24607600000772],[-121.6214120000096,39.26370700027391],[-121.6301499999148,39.30566800031897],[-121.90826900027471,39.30387799975877],[-121.94131100014184,39.26235799996276],[-121.9283319998814,39.19872899982082],[-121.94551399996394,39.17984300033702],[-121.91721399986919,39.14727800011886],[-121.93795299969347,39.13300099994298],[-121.91109500044556,39.123147000017624],[-121.88910100027046,39.072372999957075],[-121.83854500005977,39.06413000019711],[-121.82648300004134,39.011195999837405],[-121.79531800031596,38.996054000008996],[-121.84056600014158,38.95482399988468],[-121.83733400008987,38.926073000125555],[-121.79110899974776,38.90453799968132],[-121.8148140003833,38.87658199996562],[-121.78388099956321,38.8564449999186],[-121.74862400034381,38.87131800023836],[-121.72957000014237,38.858427000079935],[-121.72334600023848,38.80375900000299],[-121.69067099989417,38.79562700028221],[-121.67382600009549,38.74314100032235],[-121.66316199964471,38.76920999976043],[-121.63436299978264,38.76788199982515],[-121.62454899962674,38.78537099971119],[-121.59321400002206,38.764315999772116],[-121.60289400028367,38.73583800004693],[-121.48439599956521,38.734598000215286],[-121.46975299959833,38.75160299975762],[-121.46935599993827,38.92599199976119],[-121.41439900043707,38.926214000151035],[-121.41477900037869,38.996452000245185],[-121.54330600043987,38.97240400018277],[-121.57541500017145,38.91834799984317],[-121.57909499993683,39.00669200002357],[-121.60003600032577,39.01210600009872],[-121.61024999961644,39.05690699995863]]]}},{"type":"Feature","properties":{"name":"Contra Costa County","fips":"06013"},"geometry":{"type":"Polygon","coordinates":[[[-121.96003999975497,37.71853099973994],[-121.55699700000466,37.816487999752084],[-121.53805099975823,37.83776000015661],[-121.54064299957733,37.857597000025386],[-121.57942899984766,37.86015999975489],[-121.55640799982567,37.92363900015468],[-121.57991000007159,38.00778300006549],[-121.55752799955896,38.0166150000845],[-121.58438800025331,38.03602500018097],[-121.57289299977421,38.07374200005026],[-121.58528299985572,38.096365999844274],[-121.67306500038738,38.093517999671555],[-121.69976500034983,38.0452199997198],[-121.78314400014455,38.01853599981505],[-121.82806700028013,38.028020000248304],[-121.86213799964396,38.06606599991244],[-121.90680100038688,38.04500200009854],[-121.97744000029574,38.066840000027184],[-122.06110299977257,38.06213700026834],[-122.14857700033266,38.031721000339374],[-122.20084599975529,38.05793399975216],[-122.3474539996994,38.073260000074065],[-122.44158399998354,37.97392299981534],[-122.43228299983862,37.929824000068926],[-122.37378200011617,37.88372500002528],[-122.2640270002241,37.90377499976112],[-122.21764000039865,37.87224999990049],[-122.1855769997995,37.82072599998418],[-122.04547300014178,37.79812599997185],[-121.99741099984091,37.7633600003543],[-122.01177099995056,37.74742800021725],[-121.96003999975497,37.71853099973994]]]}},{"type":"Feature","properties":{"name":"Mendocino County","fips":"06045"},"geometry":{"type":"Polygon","coordinates":[[[-123.36839400032385,38.806639999720794],[-123.13625300043384,38.809136000087946],[-123.13663599985016,38.839447999908664],[-123.0812299999121,38.838406000135926],[-123.08099700028357,38.85243800027094],[-122.82159200036648,38.85014000022987],[-122.89463300012368,38.88083200020245],[-122.8938899999589,38.89552400028764],[-122.94886499990179,38.90021999999299],[-122.98664000021873,38.99728299989486],[-123.0280350000266,38.99659299991292],[-123.05621200009772,39.02109599988017],[-123.0651140000345,39.06439299975344],[-123.0942069996244,39.08052399966285],[-123.07781200008753,39.1737909999387],[-123.04581100031099,39.17349200028384],[-123.01270999999431,39.23618799998484],[-122.99483900017368,39.23592400028732],[-123.05631400020496,39.40758299993674],[-123.07511399996321,39.407682999860306],[-123.0631809998162,39.50353899967186],[-122.89030999975265,39.5290139998625],[-122.89267599961595,39.70889799969619],[-122.9128760003883,39.7087230001219],[-122.91251599963987,39.748164999767134],[-122.93841300006142,39.748111999667536],[-122.96014699994552,39.8451629997528],[-122.95055899974544,39.906960999861475],[-122.9097869995534,39.936384999783],[-122.92689699966591,39.97127500018434],[-123.54456299966307,39.97701500001881],[-123.54445800008108,40.00192300029227],[-124.1348890003635,40.00247000024827],[-124.07859600032062,39.97226299984199],[-123.91052899995367,39.79957499971802],[-123.89321600034985,39.704783999750035],[-123.85718299955712,39.67469299966438],[-123.83464899960686,39.54919400031956],[-123.87512600024611,39.494178999808696],[-123.8949360001328,39.348348999702345],[-123.84077100030184,39.18733499981893],[-123.76196500022508,39.04109100023936],[-123.76314799970756,39.008690000219175],[-123.80986000012136,38.961219000102936],[-123.78467599972734,38.89372799997774],[-123.63249699963237,38.758118999870796],[-123.36823600014013,38.777065999747364],[-123.36839400032385,38.806639999720794]]]}},{"type":"Feature","properties":{"name":"Yuba County","fips":"06115"},"geometry":{"type":"Polygon","coordinates":[[[-121.54330600043987,38.97240400018277],[-121.41477900037869,38.996452000245185],[-121.30916399966122,39.05255900021175],[-121.27953299994596,39.03461799984381],[-121.26613199991108,39.27271700028274],[-121.21837799958179,39.28418299970181],[-121.19561900039892,39.329582000226566],[-121.15753299973734,39.332467000001365],[-121.12788799977837,39.380044000112385],[-121.02208499963824,39.3915579997436],[-121.03440600012276,39.51450899974242],[-121.05820299992148,39.537042999848914],[-121.02438299972948,39.55904900023617],[-121.00947699999686,39.639459000258974],[-121.07954299962026,39.58526299986165],[-121.10746500032157,39.58527499968856],[-121.10696999985394,39.56719100012619],[-121.14121299964523,39.56227799983968],[-121.1592960000763,39.51959500020976],[-121.3051220003959,39.519585000006565],[-121.31478699969058,39.475899000080965],[-121.34513899982932,39.45256700014551],[-121.3340710000458,39.425802000293324],[-121.40724400004746,39.33987400017063],[-121.56369999958436,39.304938000228475],[-121.61185499977164,39.31898199990524],[-121.63636799997091,39.24607600000772],[-121.61435600025247,39.22889099969116],[-121.62908899973273,39.20467799975733],[-121.61303700032754,39.19047899987281],[-121.6026780003736,39.10015800032052],[-121.58729200024194,39.101718000319174],[-121.61025700018746,39.05680900034742],[-121.60003600032577,39.01210600009872],[-121.57909499993683,39.00669200002357],[-121.57892000003463,38.92169000010432],[-121.54330600043987,38.97240400018277]]]}},{"type":"Feature","properties":{"name":"Mariposa County","fips":"06043"},"geometry":{"type":"Polygon","coordinates":[[[-120.39534500017521,37.672255999950224],[-120.27957899991627,37.457946999754995],[-120.28339799959882,37.424363000326494],[-120.18770900008852,37.30107199977976],[-120.17849300033245,37.2624199997498],[-120.09007800013919,37.22146999972688],[-120.05205500012511,37.18310800033845],[-119.76180900034775,37.417113999765554],[-119.65119099974203,37.417832000087515],[-119.65117200037376,37.46135099969501],[-119.6154950001315,37.46152200033531],[-119.61514799980188,37.49468100008419],[-119.58421999990297,37.494696000244446],[-119.58358499969326,37.56033500034275],[-119.30728399992387,37.78282800028561],[-119.42679199987246,37.86672399969263],[-119.4742950001316,37.855622999910196],[-119.53569900001777,37.90412199968191],[-119.55860000038918,37.90312200004095],[-119.59936300036038,37.85991200010757],[-119.64860300012087,37.84502299973809],[-119.66720299986257,37.80122399971636],[-119.80780899966064,37.75502500035185],[-119.8682119996392,37.773225000346244],[-119.93841399970505,37.763025999862],[-120.07950800029805,37.82880800025988],[-120.12722599974403,37.78156599988918],[-120.17423000023588,37.79937300027983],[-120.18908099971694,37.767851999777776],[-120.23823199978897,37.76526400004311],[-120.26013999975035,37.73371600026383],[-120.2824119997598,37.74537900021835],[-120.28649400010639,37.729448999812696],[-120.34448000016803,37.726252999710724],[-120.31257200027791,37.65366800021758],[-120.3667310002611,37.68089799971879],[-120.39534500017521,37.672255999950224]]]}},{"type":"Feature","properties":{"name":"Lake County","fips":"06033"},"geometry":{"type":"Polygon","coordinates":[[[-122.46411499956075,38.70613399968176],[-122.37362300010753,38.81673299970972],[-122.4219039997932,38.90376999998508],[-122.40403200014767,38.925288999650924],[-122.34017199998648,38.92424599994087],[-122.40911799987659,38.96279299982706],[-122.41150700020442,39.01908699966447],[-122.49202300001839,39.05350300033319],[-122.5009090000616,39.12107500006547],[-122.47454100036018,39.14469900032175],[-122.47608299986786,39.17260900000734],[-122.51533100009557,39.20921499988349],[-122.66536199988708,39.21754799975001],[-122.7750430001593,39.31177799965706],[-122.74151900024333,39.36005199977631],[-122.78508999994368,39.38297499971961],[-122.73906200014343,39.38326600021583],[-122.735639000296,39.58066799965806],[-122.88535200007023,39.580107999680095],[-122.89030999975265,39.5290139998625],[-123.0631809998162,39.50353899967186],[-123.07511399996321,39.407682999860306],[-123.05631400020496,39.40758299993674],[-123.01961199976566,39.27798599979404],[-122.99427599993399,39.24988999978749],[-123.04581100031099,39.17349200028384],[-123.07781200008753,39.1737909999387],[-123.08751200044063,39.138391999901245],[-123.09301300027124,39.07199399983705],[-123.0651140000345,39.06439299975344],[-123.05621200009772,39.02109599988017],[-123.018579000071,38.9929559997229],[-122.98664000021873,38.99728299989486],[-122.94886499990179,38.90021999999299],[-122.8938899999589,38.89552400028764],[-122.89463300012368,38.88083200020245],[-122.82138800015198,38.85791999965903],[-122.74817699961717,38.803828000119076],[-122.69545100026006,38.7130899996861],[-122.64749699991422,38.70692999977001],[-122.62677200033366,38.67077999970757],[-122.46411499956075,38.70613399968176]]]}},{"type":"Feature","properties":{"name":"Del Norte County","fips":"06015"},"geometry":{"type":"Polygon","coordinates":[[[-124.39950999970588,41.77786200020018],[-124.2117060001455,41.6811929999274],[-124.20978499962281,41.63520499982892],[-124.13656099956752,41.464452000174816],[-123.77055099979431,41.464192999790114],[-123.77023899962478,41.38077599967645],[-123.66136300033992,41.38208999978086],[-123.61162700028687,41.46157099987197],[-123.6377709996823,41.48238199976717],[-123.64804599997066,41.535024000075246],[-123.69388700017319,41.55185799970779],[-123.68231999972409,41.59487499986246],[-123.71908900011056,41.59525799997674],[-123.68044400030556,41.633956999849985],[-123.68958300006875,41.66943399978764],[-123.66020500007347,41.714055000155525],[-123.68834000031178,41.781221000046926],[-123.67210999973305,41.795989999997744],[-123.70376800027623,41.82911699988142],[-123.67077999993745,41.83543199984685],[-123.64219100013769,41.88974200013375],[-123.60630100035843,41.88077299984851],[-123.59360999997804,41.90625199979278],[-123.5594919998602,41.90596799980886],[-123.53325100038042,41.95516900024532],[-123.54093399995132,41.98531299995529],[-123.51791100027951,42.00075600029315],[-124.32883499981199,41.99833400002509],[-124.2885780001791,41.96956399983858],[-124.28503099958479,41.85948699994377],[-124.40124200008266,41.88558800011869],[-124.44041400014237,41.83120400009388],[-124.39950999970588,41.77786200020018]]]}},{"type":"Feature","properties":{"name":"Madera County","fips":"06039"},"geometry":{"type":"Polygon","coordinates":[[[-120.16868900022229,36.80346099998238],[-120.07945800006934,36.8253450001374],[-120.02777499955434,36.814504999644114],[-119.98583099975046,36.840472000171594],[-119.94350700000498,36.83402999973142],[-119.88617899971929,36.859198999709584],[-119.81389799984532,36.85015200004472],[-119.69807499968495,37.008748000063136],[-119.65861100044555,37.01333000034202],[-119.64945599989048,37.04349700023461],[-119.62111599961273,37.026604999757254],[-119.60490799967363,37.071015999653],[-119.56143200040778,37.065485000154695],[-119.53759200005307,37.10506700023618],[-119.56856599998272,37.116688999891394],[-119.56083900003087,37.14290100021279],[-119.52497500019085,37.128233999712414],[-119.50604800021102,37.15034499974427],[-119.47480700031767,37.10996300004762],[-119.46263399997115,37.14421100031772],[-119.43212500037193,37.16257100025698],[-119.3888480003994,37.14921500013565],[-119.36237400039276,37.16746299982773],[-119.33008099963988,37.20742899973798],[-119.33542300036017,37.3112100000901],[-119.3121860004281,37.35272500029284],[-119.02236300025005,37.58573699984817],[-119.0651659996713,37.68455599995578],[-119.12755299992178,37.734681999973],[-119.19849099958137,37.73665700005126],[-119.21633299998798,37.71412299980988],[-119.2578779995837,37.72463100017269],[-119.30899500038429,37.777985999816],[-119.58358499969326,37.56033500034275],[-119.58421999990297,37.494696000244446],[-119.61514799980188,37.49468100008419],[-119.6154950001315,37.46152200033531],[-119.65117200037376,37.46135099969501],[-119.65119099974203,37.417832000087515],[-119.76180900034775,37.417113999765554],[-120.05726200022788,37.180645000014444],[-120.28987199974797,37.1526150000043],[-120.34120399973537,37.12459599984985],[-120.47669200001747,37.09639000004823],[-120.54169600020138,37.04450500024867],[-120.54526499963868,37.02693599985505],[-120.5029839995509,37.00062899998871],[-120.45040299995875,36.91282700013424],[-120.46675200036319,36.892193000074926],[-120.45578900016164,36.862374000068506],[-120.36922599999583,36.810068999968784],[-120.37071499980006,36.78520399974105],[-120.34512399970026,36.78504900023245],[-120.34766399964084,36.79816199999202],[-120.28981200037184,36.76305799999035],[-120.22992200040426,36.76905500033078],[-120.20707600028443,36.79090499997157],[-120.18882999964676,36.77640800013858],[-120.16868900022229,36.80346099998238]]]}},{"type":"Feature","properties":{"name":"San Mateo County","fips":"06081"},"geometry":{"type":"Polygon","coordinates":[[[-122.5867879996139,37.58998099985341],[-122.57095799996657,37.48447200027662],[-122.50988899981614,37.44155399987351],[-122.46700500020401,37.34988899987494],[-122.48404599982129,37.24994399978459],[-122.46411700010889,37.17784800005527],[-122.3760860000552,37.065647999997225],[-122.3138989998213,37.05476400006672],[-122.28938200032235,37.1134720001216],[-122.31768200041715,37.18694499976215],[-122.24265999986281,37.190034999946576],[-122.24257299982418,37.215134000236894],[-122.15277400030698,37.2154440002055],[-122.15269999978881,37.28864000033938],[-122.19306199990201,37.31827700012601],[-122.17507499973041,37.32574099992271],[-122.20246699980402,37.360272000308306],[-122.19052600015941,37.431285999731664],[-122.08147300042423,37.47783800006457],[-122.28178000004398,37.708229999648104],[-122.57518900027607,37.70672099977438],[-122.567496999586,37.63918500015351],[-122.5867879996139,37.58998099985341]]]}},{"type":"Feature","properties":{"name":"Kings County","fips":"06031"},"geometry":{"type":"Polygon","coordinates":[[[-119.53812000013268,35.789898000007135],[-119.52935799993801,36.269850000062966],[-119.47460700030113,36.26902499984514],[-119.47489199980818,36.400953000350334],[-119.52879200022358,36.401465000310324],[-119.5271939997411,36.488885999928286],[-119.57319399995224,36.48883500030813],[-119.66675099995095,36.418753999699376],[-119.67158300013499,36.4310689997418],[-119.75311400010025,36.401894000238194],[-119.95922700004749,36.4009750002711],[-119.95891599970287,36.1814139998364],[-120.31506799983755,35.90718600032678],[-120.27693400039371,35.906462999696],[-120.24327499986018,35.87766900004239],[-120.25930200004935,35.84505300028033],[-120.21990599968366,35.81891500009978],[-120.21397899988068,35.78927599975729],[-119.53812000013268,35.789898000007135]]]}},{"type":"Feature","properties":{"name":"San Diego County","fips":"06073"},"geometry":{"type":"Polygon","coordinates":[[[-117.2050509998234,32.52950800017594],[-116.10617700005669,32.61844100007823],[-116.10333800036533,33.07483199993631],[-116.08120400044815,33.074864000125885],[-116.08489300043435,33.42631699967565],[-117.24135200040473,33.431929000005105],[-117.24146700003247,33.448824999870915],[-117.37079699963454,33.49066199964038],[-117.3642739999799,33.50490000007071],[-117.5098159997191,33.50517699980589],[-117.509499000425,33.470268000357436],[-117.57851300008716,33.45380599987211],[-117.61108100030137,33.33399199965253],[-117.43556300016711,33.17751200013599],[-117.37587200039114,33.075217000339464],[-117.32327900020512,32.90306400014598],[-117.34200000032062,32.84035400012088],[-117.32093900028109,32.689846999792906],[-117.27691599977076,32.623473999969356],[-117.22330199958564,32.62123800035839],[-117.2050509998234,32.52950800017594]]]}},{"type":"Feature","properties":{"name":"Kern County","fips":"06029"},"geometry":{"type":"Polygon","coordinates":[[[-118.89463399970687,34.81797199965825],[-118.87211999984807,34.80317099986356],[-118.85400899982793,34.81775799968413],[-117.63215099966344,34.822271000098105],[-117.63434599982251,35.651571000188966],[-117.61651799965959,35.651610999971574],[-117.61651799965959,35.68068700013364],[-117.65218400003118,35.680770999817526],[-117.65213600035061,35.70985800015096],[-117.63431499986038,35.70983000002177],[-117.63429099957094,35.7976580000841],[-120.19436900001054,35.78936300011904],[-120.19398800024403,35.61438900002197],[-120.08617999991561,35.614397000342954],[-120.08676599972154,35.52643200032533],[-119.99744900025317,35.468708000311395],[-119.99315000017162,35.43946999981204],[-119.88004500022708,35.43913299987132],[-119.8803559996734,35.35112399994109],[-119.80920999960132,35.35093999971503],[-119.80940700014312,35.26369299999105],[-119.6665850002696,35.262634999962735],[-119.6673040001449,35.174982000196934],[-119.55381900025874,35.18012300034562],[-119.56175200007493,35.08783099965939],[-119.49038000004704,35.09164599970978],[-119.47255199988413,35.076668999911156],[-119.47249400015782,34.901377999951656],[-119.38370499987076,34.90081700022271],[-119.38185399966827,34.8739899998072],[-119.27643499966769,34.8724809996502],[-119.27724499977958,34.85728400004896],[-119.24258100003884,34.85759800030991],[-119.24253400018316,34.81432300031211],[-118.97792600036128,34.81171399974278],[-118.97802199972242,34.789808999857996],[-118.88040500001678,34.7886550001579],[-118.89463399970687,34.81797199965825]]]}},{"type":"Feature","properties":{"name":"Placer County","fips":"06061"},"geometry":{"type":"Polygon","coordinates":[[[-120.00246100036227,39.06748900030422],[-120.00632299970253,39.31649600019226],[-120.69153700002212,39.30410000004252],[-120.98914599970328,39.11153299988697],[-120.99177699988044,39.07581199965347],[-121.04160800036806,39.013791000258486],[-121.10424699961526,39.01185000019022],[-121.13797899994371,39.037911000011846],[-121.22098600019274,39.01177699998106],[-121.30599199988396,39.05294299973816],[-121.41478699987628,38.99841800008711],[-121.41439900043707,38.926214000151035],[-121.46935599993827,38.92599199976119],[-121.46975299959833,38.75160299975762],[-121.48439599956521,38.734598000215286],[-121.13450699969248,38.7120319999617],[-121.10175899955323,38.81522199993278],[-121.05840799996088,38.8471290002326],[-121.06195200018212,38.88213899971833],[-121.04040599972065,38.915651000248964],[-120.9385700002994,38.93556499988474],[-120.93621000028386,38.963927000318655],[-120.85986299995685,38.95165299987552],[-120.80938600028718,39.00082600011602],[-120.74639499978913,39.01035200034219],[-120.70486600008694,38.9813450002968],[-120.68564700002906,38.98964800027037],[-120.67274800013455,38.958593000304475],[-120.56425799974078,38.913644000009114],[-120.49273500010014,38.94335099967649],[-120.43524000030818,39.028396999846684],[-120.2404100002296,39.02366800030518],[-120.16502799982518,39.038484999974436],[-120.14366300001203,39.06728499979445],[-120.00246100036227,39.06748900030422]]]}},{"type":"Feature","properties":{"name":"El Dorado County","fips":"06017"},"geometry":{"type":"Polygon","coordinates":[[[-120.18443299965591,39.03100800006592],[-120.43524000030818,39.028396999846684],[-120.49273500010014,38.94335099967649],[-120.56425799974078,38.913644000009114],[-120.74639499978913,39.01035200034219],[-120.81277499979939,38.99989899995078],[-120.85986299995685,38.95165299987552],[-120.9372689999178,38.96368400014478],[-120.9385700002994,38.93556499988474],[-121.0409649997624,38.915049999658656],[-121.06195200018212,38.88213899971833],[-121.05799299985917,38.84784599984163],[-121.10175899955323,38.81522199993278],[-121.14159500013497,38.71193900004882],[-121.1190489995908,38.71786299993136],[-121.02737899977964,38.508253000012694],[-120.88632500026792,38.52465200024266],[-120.81355399994916,38.56219299971099],[-120.60615700023709,38.50234900021845],[-120.30172100022939,38.54910900030516],[-120.23384900004181,38.58831599999007],[-120.2143039995707,38.629082000216364],[-120.14008399963068,38.63837400034479],[-120.1120089996668,38.70501600019772],[-120.07239200026648,38.7027669997786],[-119.94792699956207,38.78164200010106],[-119.90631199964619,38.85550500014909],[-119.87728699982831,38.87019300011178],[-119.88764300030749,38.918295000186426],[-120.00101400039082,38.9995739998671],[-120.00246100036227,39.06748900030422],[-120.14366300001203,39.06728499979445],[-120.18443299965591,39.03100800006592]]]}},{"type":"Feature","properties":{"name":"San Benito County","fips":"06069"},"geometry":{"type":"Polygon","coordinates":[[[-121.64400100021145,36.89399599988267],[-121.62208900005211,36.84620299996296],[-121.46236799995323,36.74385100010707],[-121.45307199983118,36.72119799976499],[-121.48450799971822,36.71306199995679],[-121.46902299985236,36.685433999702354],[-121.35009200038718,36.64835699973249],[-121.31837299974462,36.61002600007094],[-121.32914199977739,36.55544300032808],[-121.29536199976837,36.527128999972454],[-121.31124099981953,36.501913000167335],[-121.23929499968128,36.50478199967234],[-121.22951099966262,36.47527699978521],[-121.04079700043123,36.32396899990086],[-121.02723999986247,36.2598929997083],[-120.99241499956489,36.2699209997121],[-120.98579999984875,36.292937000152136],[-120.95343199965107,36.27470600028365],[-120.91905800033854,36.31086300033018],[-120.85141600030477,36.2858699999358],[-120.76129300002414,36.203387999714344],[-120.71816900021251,36.196847999825025],[-120.70742899959373,36.23178500001572],[-120.75833999963169,36.30860399986172],[-120.67858200005111,36.26731900012714],[-120.68283400027703,36.294264000123874],[-120.66313099962214,36.31438500005965],[-120.59656200036432,36.32848799965787],[-120.59715499984293,36.488234999876376],[-120.93368200003887,36.75189500024896],[-121.14152300016494,36.83665599980725],[-121.18429700017222,36.90897299993296],[-121.23433199997599,36.92614699986867],[-121.21453600033303,36.96124799992155],[-121.4182459997087,36.960549000126704],[-121.45060700023369,36.988944000346805],[-121.48894900008999,36.98314799991598],[-121.56027199971406,36.897110999686845],[-121.62841900026123,36.91182000019674],[-121.64400100021145,36.89399599988267]]]}},{"type":"Feature","properties":{"name":"Colusa County","fips":"06011"},"geometry":{"type":"Polygon","coordinates":[[[-122.33796699978166,38.92394499994548],[-121.83548799991023,38.92448099982272],[-121.83430999955227,38.96872799998031],[-121.79531800031596,38.996054000008996],[-121.82648300004134,39.011195999837405],[-121.83854500005977,39.06413000019711],[-121.88910100027046,39.072372999957075],[-121.91109500044556,39.123147000017624],[-121.93901399987551,39.135404999872414],[-121.91721399986919,39.14727800011886],[-121.94551399996394,39.17984300033702],[-121.9283319998814,39.19872899982082],[-121.94682100019332,39.249841999932116],[-121.90770799968483,39.302293000303024],[-121.8900129995913,39.38386400023296],[-122.01020199978036,39.38394599994497],[-122.00885699991616,39.41356699969091],[-122.12562699955747,39.41459300016688],[-122.1360059996029,39.38549399973357],[-122.78508999994368,39.38297499971961],[-122.74221200017938,39.36529300008632],[-122.77546999995656,39.31518199992521],[-122.75811399979675,39.28538000029357],[-122.67972899966945,39.224530000120836],[-122.51533100009557,39.20921499988349],[-122.4772899996398,39.17394999996174],[-122.47454100036018,39.14469900032175],[-122.5009090000616,39.12107500006547],[-122.49202300001839,39.05350300033319],[-122.41150700020442,39.01908699966447],[-122.41668599981979,38.97804100021088],[-122.37276699996485,38.939673000165236],[-122.33796699978166,38.92394499994548]]]}},{"type":"Feature","properties":{"name":"Alpine County","fips":"06003"},"geometry":{"type":"Polygon","coordinates":[[[-120.07333100024981,38.7010900002102],[-120.07256600034376,38.447081000309446],[-120.05365000023457,38.45560699985774],[-119.8847490003646,38.356185000152266],[-119.8013920003112,38.40149299968194],[-119.70790999975725,38.41730399968357],[-119.70002899981962,38.365215000321456],[-119.63920499989158,38.32687999999558],[-119.63557500035492,38.35390799975334],[-119.60661999995894,38.36718199988643],[-119.62209300012923,38.39387500004058],[-119.56199499974919,38.41073399989571],[-119.57000899975621,38.43486000005182],[-119.54286199990503,38.49969400013679],[-119.6210289995741,38.61351799991385],[-119.61465800025542,38.66587900029534],[-119.57947599958248,38.7066530000604],[-119.90431499985381,38.933323999809986],[-119.88030299996994,38.86477600014818],[-119.90631199964619,38.85550500014909],[-119.94792699956207,38.78164200010106],[-120.07333100024981,38.7010900002102]]]}},{"type":"Feature","properties":{"name":"San Luis Obispo County","fips":"06079"},"geometry":{"type":"Polygon","coordinates":[[[-120.80041099965717,35.11657699985769],[-120.68960600035201,35.098828000112654],[-120.70279499977643,34.99997500025994],[-120.63414400033741,34.959562000271376],[-120.49622200041996,34.993154999936564],[-120.44024999986912,34.988322999922744],[-120.31196300000745,34.903817000222595],[-120.29218800028086,34.93193199966873],[-120.33392200002245,34.99563100025546],[-120.32382300035952,35.01731399996177],[-120.20990699957983,35.020581999717976],[-120.14317000009251,35.09573899966562],[-120.08208400022363,35.11467800004009],[-119.98012200040567,35.05757299964414],[-119.92841899979916,35.059793999635374],[-119.90196800025709,35.03579300028533],[-119.85451699987647,35.032149000321674],[-119.78929199975963,34.98867000002224],[-119.67316300017582,34.973474999989435],[-119.5357569997441,34.89757599963299],[-119.47248900013494,34.901174999853964],[-119.47255199988413,35.076668999911156],[-119.49038000004704,35.09164599970978],[-119.56175200007493,35.08783099965939],[-119.55381900025874,35.18012300034562],[-119.6673040001449,35.174982000196934],[-119.6665850002696,35.262634999962735],[-119.80940700014312,35.26369299999105],[-119.80920999960132,35.35093999971503],[-119.8803559996734,35.35112399994109],[-119.88004500022708,35.43913299987132],[-119.99315000017162,35.43946999981204],[-119.99744900025317,35.468708000311395],[-120.08676599972154,35.52643200032533],[-120.08617999991561,35.614397000342954],[-120.19398800024403,35.61438900002197],[-120.19436900001054,35.78936300011904],[-121.43817600014431,35.79665500035294],[-121.39345999969797,35.76340099968147],[-121.36636200025058,35.68041899999524],[-121.32351200007531,35.62496900017199],[-121.20155500042274,35.58368999976786],[-121.04163500013223,35.419989999891314],[-120.93329200005152,35.392747999843216],[-120.92343500023793,35.348413000159226],[-120.96125300021258,35.24997499991458],[-120.91779200011707,35.187377999685665],[-120.80041099965717,35.11657699985769]]]}},{"type":"Feature","properties":{"name":"Santa Clara County","fips":"06085"},"geometry":{"type":"Polygon","coordinates":[[[-122.20259800022357,37.363217000299244],[-122.17507499973041,37.32574099992271],[-122.19306199990201,37.31827700012601],[-122.10422999995724,37.23426999967278],[-122.05508700028113,37.212497000279065],[-122.02617399971795,37.16685400012025],[-121.75548000008439,37.04902999992123],[-121.71876199975154,37.00755699966268],[-121.73869700021001,36.989990999721485],[-121.69535800031322,36.98514999970108],[-121.64579100031459,36.93232999987502],[-121.59035400041435,36.92615099981222],[-121.57572499979287,36.89299999992727],[-121.48894900008999,36.98314799991598],[-121.45060700023369,36.988944000346805],[-121.4182459997087,36.960549000126704],[-121.21540599982107,36.96124799992155],[-121.2465680000717,36.98522799986585],[-121.23333699991616,37.0117460002841],[-121.24864699987984,37.03367999974432],[-121.20819799972799,37.06128899971052],[-121.24548400032342,37.08914799972797],[-121.21733900003935,37.123041999708825],[-121.23662900024233,37.15667500030045],[-121.28110700013899,37.183602999922684],[-121.32840899965836,37.16594999973729],[-121.35955800038853,37.184452999874495],[-121.39901900015322,37.1501350000743],[-121.42182199971701,37.221309999945596],[-121.45574999986404,37.24944000001525],[-121.45805100032831,37.2841390001064],[-121.40575299969505,37.310990000109044],[-121.42365000035328,37.35883699978716],[-121.40907500015845,37.380672000260724],[-121.45665100021253,37.39553500000409],[-121.47260600043167,37.42334499981697],[-121.46291699994924,37.45148899986032],[-121.4867749998473,37.47565200034543],[-121.47295200003808,37.48233299966121],[-121.8652669997635,37.484637000190375],[-121.92504100027844,37.45418599980327],[-121.94491399991432,37.46916300008397],[-122.05124400030914,37.459007000244775],[-122.08147300042423,37.47783800006457],[-122.18229899971705,37.43936199990467],[-122.20259800022357,37.363217000299244]]]}},{"type":"Feature","properties":{"name":"Calaveras County","fips":"06009"},"geometry":{"type":"Polygon","coordinates":[[[-120.63179500019254,38.34602700004025],[-120.75491400030954,38.288266000337124],[-120.80774000012407,38.28872299985539],[-120.89329900000926,38.221391000270586],[-120.99550000020182,38.225389000285006],[-120.93884999978356,38.088321000063445],[-120.65327399980852,37.831857999869435],[-120.54235099960428,37.920445999756296],[-120.51343899976433,37.95644400011919],[-120.54307500040078,37.97523700032097],[-120.53481399962322,37.99117400001419],[-120.46374899974202,38.01039000001644],[-120.4095710003906,38.102979000176],[-120.17646700022776,38.3737850000425],[-120.01995100041643,38.43352099982663],[-120.05365000023457,38.45560699985774],[-120.07256600034376,38.447081000309446],[-120.07248400032799,38.50986900029605],[-120.20940500033781,38.500756999658435],[-120.3310399997751,38.46519199992671],[-120.42321500009967,38.47332200003193],[-120.60807100018879,38.39799500004104],[-120.63179500019254,38.34602700004025]]]}},{"type":"Feature","properties":{"name":"Tehama County","fips":"06103"},"geometry":{"type":"Polygon","coordinates":[[[-122.19917299982804,40.37794299969904],[-122.44397400013628,40.373261000277964],[-122.52456600011821,40.39447700012734],[-122.65059099987367,40.32842499987039],[-122.74878000003986,40.3656769999221],[-122.87269000000218,40.34892400032876],[-122.91895200015418,40.306637000130635],[-122.97687100026867,40.31514499995798],[-123.06542600020401,40.28697100001141],[-122.97511899980039,40.232567999918516],[-122.97006400003357,40.18630599967154],[-122.98961399962926,40.14512599992172],[-122.96856799965833,40.13903299973792],[-122.951860000127,39.99882699997242],[-122.9097869995534,39.936384999783],[-122.95096399980139,39.906108000278266],[-122.96014699994552,39.8451629997528],[-122.9436019997225,39.80165200019663],[-122.04647099967633,39.797648000021965],[-122.06943099959898,39.84052999978526],[-122.04486499969623,39.883770999969606],[-121.80404100015257,39.88434399981516],[-121.75314000016036,39.904290000188354],[-121.74455799989079,39.94184799975277],[-121.70324099990069,39.98422999970697],[-121.64603200033899,39.98252699972647],[-121.58640699978699,40.10052199971973],[-121.51055900012554,40.10051499987195],[-121.44286900041118,40.129647000073845],[-121.44411100034321,40.190745000222556],[-121.36773499970386,40.2127279998404],[-121.34936699976575,40.27341799971241],[-121.37679999984724,40.297988999982344],[-121.34233399957485,40.30760399990702],[-121.38038300042652,40.3402879996592],[-121.47241999976049,40.35162000012547],[-121.47380599963259,40.424640999752995],[-121.49763500011667,40.44559099981331],[-121.59308599997556,40.43112600012646],[-121.68578699983158,40.45313300025654],[-121.73458499972621,40.43563199986874],[-121.85135000024295,40.44259599974858],[-121.94098899992656,40.41533100030852],[-122.09904799996885,40.414756999860195],[-122.19917299982804,40.37794299969904]]]}},{"type":"Feature","properties":{"name":"Riverside County","fips":"06065"},"geometry":{"type":"Polygon","coordinates":[[[-117.24135200040473,33.431929000005105],[-114.62712500002766,33.43355399987502],[-114.5923690002254,33.49867500016034],[-114.5245990001451,33.55223100022081],[-114.54061700011343,33.59141200023204],[-114.52184499994428,33.61254400003098],[-114.5331939999352,33.65166000020296],[-114.51405699989307,33.66017899996544],[-114.53152299965774,33.67510800014028],[-114.49419699977766,33.707922000262414],[-114.5280499995816,33.814962999961054],[-114.52988300024076,33.85756299975502],[-114.50301699969864,33.867998000008015],[-114.52587200003927,33.90100800001006],[-114.5079200000278,33.90380700034147],[-114.53567600014944,33.933551999642354],[-114.43826600013301,34.02260899992671],[-114.43542900009152,34.07972700034741],[-115.3160650001434,34.07784300003933],[-115.31621199955819,34.03411000028599],[-116.92955799961778,34.03411300037081],[-116.92935699977635,34.00491400028577],[-117.22537299989617,34.00418900031153],[-117.22553299972974,34.017966000182895],[-117.37541600028156,34.01939899997462],[-117.37534400031156,34.03387500025929],[-117.55831200038824,34.03345099967626],[-117.55837699978724,33.98841999981365],[-117.6109430002091,33.97180700012527],[-117.61095400007976,33.92415199970457],[-117.65515699961682,33.92485400024885],[-117.65482699990393,33.88868200002672],[-117.67627999958063,33.888640000043175],[-117.67428199996338,33.85795600017595],[-117.58013599978572,33.76798799968991],[-117.53644799990948,33.75766500030549],[-117.53399900020548,33.71035500011273],[-117.47457299984511,33.703811000095264],[-117.41298700038404,33.65904500019685],[-117.51020999990439,33.53399899998804],[-117.50972200000774,33.505175999827344],[-117.3642739999799,33.50490000007071],[-117.37079699963454,33.49066199964038],[-117.24146700003247,33.448824999870915],[-117.24135200040473,33.431929000005105]]]}},{"type":"Feature","properties":{"name":"Santa Cruz County","fips":"06087"},"geometry":{"type":"Polygon","coordinates":[[[-122.05187799979564,36.81960000017198],[-121.8099799996511,36.850804999699356],[-121.78737100025609,36.884699999765644],[-121.72644699987059,36.91427199980016],[-121.65772899958614,36.913774000175636],[-121.64441299994012,36.89387499969587],[-121.62841900026123,36.91182000019674],[-121.58135399966999,36.899151999784195],[-121.58115399965347,36.9192520003435],[-121.62475500038938,36.940451000092416],[-121.64579100031459,36.93232999987502],[-121.69535800031322,36.98514999970108],[-121.73869700021001,36.989990999721485],[-121.71876199975154,37.00755699966268],[-121.72657999994,37.02188999980928],[-121.8241799999272,37.08776000019552],[-121.99108999985263,37.144270000346616],[-122.15227800001443,37.28605500028296],[-122.15277400030698,37.2154440002055],[-122.24257299982418,37.215134000236894],[-122.24265999986281,37.190034999946576],[-122.31768200041715,37.18694499976215],[-122.28938200032235,37.1134720001216],[-122.3138989998213,37.05476400006672],[-122.25108200029885,36.98583300018517],[-122.07639900039085,36.91019899968021],[-122.05187799979564,36.81960000017198]]]}},{"type":"Feature","properties":{"name":"Tulare County","fips":"06107"},"geometry":{"type":"Polygon","coordinates":[[[-118.9847789997288,36.65714699999665],[-119.3046250001576,36.66060599973955],[-119.30510200018358,36.57372500027604],[-119.46632200013245,36.575237999735],[-119.57319399995224,36.48883500030813],[-119.5271939997411,36.488885999928286],[-119.52879200022358,36.401465000310324],[-119.47489199980818,36.400953000350334],[-119.47460700030113,36.26902499984514],[-119.52935799993801,36.269850000062966],[-119.53812000013268,35.789898000007135],[-118.00809400031656,35.78893500009301],[-118.00741800009895,35.85817999983155],[-117.9807609997942,35.86751499966871],[-117.98328700038938,35.926562999788906],[-118.01679100021389,35.954551000347536],[-118.00357699977678,35.983718000207816],[-118.03361099989819,36.00894400036153],[-118.06731300008938,36.0934420002675],[-118.05931499997588,36.170139999898204],[-118.10561599958764,36.21343899988767],[-118.12760100044025,36.2803479997787],[-118.10031700032168,36.3461369999887],[-118.16291899975899,36.38943599999376],[-118.13881900001154,36.41893600033317],[-118.20981899959543,36.43033599988992],[-118.24991999959272,36.48243499975968],[-118.23882099984709,36.52363499984345],[-118.29202300030359,36.5622350003401],[-118.27462399958773,36.59733399964113],[-118.32132599995579,36.62743400033348],[-118.33122700015034,36.66943399966654],[-118.36612799971753,36.69043499987359],[-118.33472799981554,36.70533399993967],[-118.35132900011506,36.74103400035232],[-118.98244100035289,36.74164599993917],[-118.9847789997288,36.65714699999665]]]}}]}