{"type":"FeatureCollection","features":[{"type":"Feature","properties":{"name":"Somerset County","fips":"42111"},"geometry":{"type":"Polygon","coordinates":[[[-79.3925,39.7216],[-78.8084,39.7229],[-78.767,39.7954],[-78.7632,40.057],[-78.752,40.0749],[-78.7398,40.0696],[-78.6583,40.2432],[-78.8847,40.2446],[-78.8962,40.2716],[-78.9271,40.2847],[-79.0561,40.2849],[-79.1267,40.1833],[-79.1433,40.1799],[-79.14,40.1639],[-79.1613,40.1609],[-79.1836,40.1107],[-79.2138,40.118],[-79.2646,40.0785],[-79.3916,39.9195],[-79.4176,39.8538],[-79.3691,39.8247],[-79.3671,39.7933],[-79.3513,39.7866],[-79.395,39.7834],[-79.3787,39.7689],[-79.41,39.735],[-79.3925,39.7216]]]}},{"type":"Feature","properties":{"name":"Bucks County","fips":"42017"},"geometry":{"type":"Polygon","coordinates":[[[-75.0607,40.4213],[-75.0684,40.542],[-75.1164,40.5731],[-75.1849,40.5683],[-75.1968,40.6086],[-75.4097,40.488],[-75.4839,40.4186],[-74.9647,40.1186],[-74.9584,40.084],[-74.9852,40.0571],[-74.974,40.0486],[-74.8628,40.0829],[-74.8225,40.1268],[-74.7842,40.1205],[-74.7244,40.1464],[-74.7714,40.2152],[-74.8423,40.2505],[-74.8682,40.2952],[-74.9397,40.338],[-74.9666,40.3982],[-75.0607,40.4213]]]}},{"type":"Feature","properties":{"name":"Lycoming County","fips":"42081"},"geometry":{"type":"Polygon","coordinates":[[[-76.881,41.158],[-76.7908,41.1757],[-76.6788,41.1542],[-76.5926,41.1578],[-76.4476,41.2756],[-76.5925,41.3043],[-76.7495,41.4056],[-76.8137,41.59],[-76.8747,41.5969],[-76.9603,41.5514],[-77.5993,41.5423],[-77.5973,41.4411],[-77.5847,41.4413],[-77.5379,41.3653],[-77.4763,41.3385],[-77.4713,41.3133],[-77.3701,41.2327],[-77.2924,41.1971],[-77.1643,41.0687],[-76.9779,41.0879],[-76.9602,41.1488],[-76.8961,41.1391],[-76.881,41.158]]]}},{"type":"Feature","properties":{"name":"Greene County","fips":"42059"},"geometry":{"type":"Polygon","coordinates":[[[-80.0398,39.9741],[-80.0508,39.9888],[-80.039,39.9966],[-80.0598,40.0095],[-80.0861,39.9903],[-80.1295,39.9884],[-80.1759,40.0081],[-80.2734,40.0024],[-80.3014,40.0206],[-80.3126,40.0033],[-80.4536,39.9734],[-80.4753,39.9521],[-80.519,39.9636],[-80.5193,39.7214],[-79.9163,39.7208],[-79.9034,39.743],[-79.9308,39.7579],[-79.9344,39.7813],[-79.9086,39.7935],[-79.9386,39.8449],[-79.9154,39.8796],[-79.9233,39.9215],[-79.9572,39.9533],[-80.0076,39.9567],[-79.9991,39.9844],[-80.0398,39.9741]]]}},{"type":"Feature","properties":{"name":"Montour County","fips":"42093"},"geometry":{"type":"Polygon","coordinates":[[[-76.5148,40.9585],[-76.5652,40.9998],[-76.5699,41.0538],[-76.619,41.0638],[-76.6408,41.1557],[-76.7327,41.172],[-76.7351,41.0911],[-76.7929,40.9466],[-76.6336,40.9641],[-76.6014,40.9422],[-76.557,40.9386],[-76.5681,40.9155],[-76.5574,40.8889],[-76.528,40.8825],[-76.5294,40.9401],[-76.5148,40.9585]]]}},{"type":"Feature","properties":{"name":"Tioga County","fips":"42117"},"geometry":{"type":"Polygon","coordinates":[[[-77.5993,41.5423],[-76.9603,41.5514],[-76.8747,41.5969],[-76.9271,42.0016],[-77.61,41.9994],[-77.5993,41.5423]]]}},{"type":"Feature","properties":{"name":"Warren County","fips":"42123"},"geometry":{"type":"Polygon","coordinates":[[[-78.9189,41.9981],[-79.6108,41.9988],[-79.6131,41.6239],[-78.9561,41.6233],[-78.9486,41.8305],[-78.9156,41.8409],[-78.9189,41.9981]]]}},{"type":"Feature","properties":{"name":"Mercer County","fips":"42085"},"geometry":{"type":"Polygon","coordinates":[[[-79.9998,41.49],[-80.5192,41.4891],[-80.519,41.1251],[-80.2579,41.1282],[-80.2579,41.1172],[-80.1473,41.1139],[-80.0969,41.0698],[-80.0471,41.1206],[-79.9998,41.1719],[-79.9998,41.49]]]}},{"type":"Feature","properties":{"name":"Berks County","fips":"42011"},"geometry":{"type":"Polygon","coordinates":[[[-75.6959,40.2424],[-75.5298,40.4471],[-75.8915,40.6773],[-75.9932,40.6397],[-76.0173,40.5742],[-76.045,40.5838],[-76.1716,40.5349],[-76.4402,40.496],[-76.2055,40.3607],[-75.8734,40.1371],[-75.6959,40.2424]]]}},{"type":"Feature","properties":{"name":"York County","fips":"42133"},"geometry":{"type":"Polygon","coordinates":[[[-76.9993,39.7201],[-76.2387,39.7251],[-76.3777,39.8667],[-76.3905,39.9118],[-76.4777,39.9498],[-76.534,40.051],[-76.6638,40.0632],[-76.7435,40.1308],[-76.7523,40.1755],[-76.8247,40.2023],[-76.8395,40.2216],[-76.9039,40.2242],[-76.9,40.2122],[-76.9317,40.1987],[-76.9086,40.1907],[-76.9285,40.1851],[-76.9059,40.1657],[-77.031,40.1469],[-77.1374,40.0699],[-77.0186,40.0139],[-76.9662,39.9352],[-76.984,39.8936],[-76.9549,39.8569],[-76.9997,39.8313],[-76.9993,39.7201]]]}},{"type":"Feature","properties":{"name":"Cumberland County","fips":"42041"},"geometry":{"type":"Polygon","coordinates":[[[-77.0128,40.1484],[-76.9753,40.153],[-76.978,40.1648],[-76.9059,40.1657],[-76.9285,40.1851],[-76.9086,40.1907],[-76.9315,40.1994],[-76.9,40.2122],[-76.9029,40.2246],[-76.8609,40.2193],[-76.9242,40.2892],[-76.9142,40.3288],[-77.3122,40.2677],[-77.3312,40.2764],[-77.3266,40.2926],[-77.4215,40.2558],[-77.366,40.3136],[-77.5997,40.1881],[-77.6147,40.1985],[-77.6276,40.1887],[-77.5928,40.1352],[-77.5629,40.1193],[-77.5325,40.0487],[-77.4541,39.9724],[-77.4711,39.9441],[-77.4036,39.9945],[-77.1856,40.0295],[-77.0128,40.1484]]]}},{"type":"Feature","properties":{"name":"Franklin County","fips":"42055"},"geometry":{"type":"Polygon","coordinates":[[[-77.5264,40.0458],[-77.5629,40.1193],[-77.5928,40.1352],[-77.6276,40.1887],[-77.605,40.2055],[-77.6027,40.2282],[-77.6428,40.2181],[-77.6451,40.2551],[-77.6677,40.252],[-77.6564,40.2704],[-77.6718,40.2899],[-77.7683,40.2041],[-77.8594,40.0652],[-77.9186,40.0046],[-77.9826,39.8579],[-78.0994,39.7221],[-77.4591,39.72],[-77.4711,39.9441],[-77.4541,39.9724],[-77.5264,40.0458]]]}},{"type":"Feature","properties":{"name":"Luzerne County","fips":"42079"},"geometry":{"type":"Polygon","coordinates":[[[-75.7703,41.0501],[-75.7675,41.0927],[-75.7536,41.1034],[-75.6919,41.1312],[-75.6664,41.1336],[-75.6567,41.116],[-75.6346,41.123],[-75.6008,41.16],[-75.6492,41.1872],[-75.6523,41.2574],[-75.6793,41.2643],[-75.6886,41.3394],[-75.7421,41.3483],[-75.8232,41.3894],[-75.8345,41.427],[-76.0051,41.3846],[-76.2828,41.3772],[-76.3108,41.3089],[-76.3192,41.2081],[-76.2774,41.1318],[-76.229,41.1385],[-76.2314,41.0507],[-76.2078,40.9497],[-76.028,40.9023],[-75.7322,41.0081],[-75.7703,41.0501]]]}},{"type":"Feature","properties":{"name":"Mifflin County","fips":"42087"},"geometry":{"type":"Polygon","coordinates":[[[-77.6675,40.7355],[-77.7084,40.6905],[-77.6871,40.6768],[-77.8216,40.5789],[-77.8418,40.55],[-77.816,40.4997],[-77.9138,40.3987],[-77.8703,40.3923],[-77.8557,40.3649],[-77.7617,40.3687],[-77.6125,40.4909],[-77.6125,40.5142],[-77.4975,40.5817],[-77.4925,40.6131],[-77.2879,40.6936],[-77.3541,40.7017],[-77.3642,40.8469],[-77.6675,40.7355]]]}},{"type":"Feature","properties":{"name":"Venango County","fips":"42121"},"geometry":{"type":"Polygon","coordinates":[[[-79.9998,41.1719],[-79.6701,41.1831],[-79.6496,41.2179],[-79.6504,41.2537],[-79.6329,41.2536],[-79.6276,41.2772],[-79.6046,41.2771],[-79.6042,41.3215],[-79.4781,41.3357],[-79.4782,41.4401],[-79.5216,41.4406],[-79.5121,41.6246],[-79.8291,41.6221],[-79.8501,41.5871],[-79.8927,41.5741],[-79.9581,41.5135],[-79.9987,41.501],[-79.9998,41.1719]]]}},{"type":"Feature","properties":{"name":"Bradford County","fips":"42015"},"geometry":{"type":"Polygon","coordinates":[[[-76.1455,41.9988],[-76.9271,42.0016],[-76.8747,41.5967],[-76.2201,41.5413],[-76.198,41.6478],[-76.1152,41.6518],[-76.1455,41.9988]]]}},{"type":"Feature","properties":{"name":"Huntingdon County","fips":"42061"},"geometry":{"type":"Polygon","coordinates":[[[-78.222,40.6745],[-78.1664,40.6179],[-78.1971,40.5584],[-78.1662,40.5314],[-78.1357,40.5697],[-78.1286,40.568],[-78.1539,40.4922],[-78.1339,40.4983],[-78.1295,40.4857],[-78.2573,40.2979],[-78.2363,40.2246],[-78.0785,40.1333],[-77.9256,40.104],[-77.8623,40.0622],[-77.7683,40.2041],[-77.703,40.2639],[-77.7521,40.3785],[-77.8557,40.3649],[-77.8703,40.3923],[-77.9124,40.4082],[-77.816,40.4997],[-77.8418,40.55],[-77.8216,40.5789],[-77.6827,40.6827],[-77.7084,40.6905],[-77.6766,40.7165],[-77.6813,40.7298],[-77.7105,40.7146],[-77.7187,40.7274],[-77.7685,40.7195],[-77.8249,40.7435],[-77.9443,40.6916],[-78.1162,40.7394],[-78.2155,40.6851],[-78.222,40.6745]]]}},{"type":"Feature","properties":{"name":"Crawford County","fips":"42039"},"geometry":{"type":"Polygon","coordinates":[[[-79.6121,41.8503],[-80.5194,41.8496],[-80.5192,41.4891],[-79.9987,41.4901],[-79.8927,41.5741],[-79.8297,41.602],[-79.8291,41.6221],[-79.6132,41.6169],[-79.6121,41.8503]]]}},{"type":"Feature","properties":{"name":"Chester County","fips":"42029"},"geometry":{"type":"MultiPolygon","coordinates":[[[[-75.5979,39.8745],[-75.5427,39.9272],[-75.5235,39.9231],[-75.5238,39.9441],[-75.4358,39.9851],[-75.4538,39.9936],[-75.4043,40.0274],[-75.415,40.0418],[-75.361,40.0655],[-75.3926,40.061],[-75.4201,40.0972],[-75.4563,40.0878],[-75.4716,40.1119],[-75.4616,40.1248],[-75.5061,40.133],[-75.5038,40.1597],[-75.5259,40.1486],[-75.5574,40.2076],[-75.5733,40.1953],[-75.597,40.2368],[-75.6124,40.223],[-75.6511,40.2421],[-75.6968,40.2419],[-75.943,40.1093],[-75.9359,40.0375],[-75.9946,39.9524],[-75.981,39.9335],[-75.9974,39.9281],[-75.9868,39.8736],[-76.0222,39.8508],[-76.0165,39.8313],[-76.0376,39.8269],[-76.0296,39.8127],[-76.0498,39.8027],[-76.0414,39.7966],[-76.0667,39.76],[-76.1003,39.7457],[-76.0958,39.7299],[-76.1192,39.7366],[-76.119,39.7236],[-76.1363,39.7232],[-75.7738,39.7222],[-75.7062,39.7997],[-75.5949,39.8375],[-75.5979,39.8745]]],[[[-75.5869,39.8443],[-75.5863,39.8384],[-75.5799,39.8389],[-75.5869,39.8443]]]]}},{"type":"Feature","properties":{"name":"Allegheny County","fips":"42003"},"geometry":{"type":"Polygon","coordinates":[[[-79.7838,40.3154],[-79.7646,40.3903],[-79.7069,40.4223],[-79.7034,40.4515],[-79.7016,40.5254],[-79.7356,40.549],[-79.7651,40.5492],[-79.7737,40.5808],[-79.6944,40.6351],[-79.6929,40.6696],[-80.1485,40.6738],[-80.1451,40.6134],[-80.1804,40.6093],[-80.3609,40.4777],[-80.1846,40.3331],[-79.9145,40.2524],[-79.9713,40.2282],[-79.9108,40.197],[-79.7826,40.2276],[-79.8074,40.236],[-79.7875,40.2625],[-79.7958,40.2811],[-79.7752,40.2864],[-79.7838,40.3154]]]}},{"type":"Feature","properties":{"name":"Snyder County","fips":"42109"},"geometry":{"type":"Polygon","coordinates":[[[-76.8561,40.7912],[-76.8128,40.8471],[-76.7995,40.8757],[-76.7987,40.8784],[-76.8002,40.882],[-76.9415,40.8881],[-77.0199,40.8579],[-77.0741,40.8683],[-77.3216,40.8171],[-77.3566,40.8073],[-77.3541,40.7017],[-77.1508,40.6771],[-77.1096,40.6916],[-77.0936,40.6761],[-77.0378,40.6795],[-77.0344,40.6599],[-77.0104,40.6616],[-76.9973,40.6357],[-76.9452,40.6503],[-76.9399,40.6381],[-76.8634,40.7077],[-76.8561,40.7912]]]}},{"type":"Feature","properties":{"name":"Fayette County","fips":"42051"},"geometry":{"type":"Polygon","coordinates":[[[-79.3873,39.9223],[-79.2936,40.0408],[-79.3418,40.0432],[-79.3555,40.0743],[-79.4732,40.1457],[-79.5854,40.1021],[-79.593,40.0821],[-79.622,40.0945],[-79.6424,40.0836],[-79.6856,40.1138],[-79.7081,40.1077],[-79.7461,40.1285],[-79.8753,40.1295],[-79.839,40.0906],[-79.9014,40.0767],[-79.8794,40.0644],[-79.8919,40.0482],[-79.88,40.0283],[-79.9467,39.9943],[-79.9882,40.0119],[-79.9914,39.9855],[-80.0106,39.9727],[-79.9988,39.9509],[-79.9572,39.9533],[-79.9231,39.921],[-79.9154,39.8796],[-79.9386,39.8449],[-79.9086,39.7935],[-79.9344,39.7813],[-79.9308,39.7579],[-79.9034,39.743],[-79.9163,39.7208],[-79.3925,39.7216],[-79.41,39.735],[-79.3787,39.7689],[-79.395,39.7834],[-79.3513,39.7866],[-79.3671,39.7933],[-79.3691,39.8247],[-79.4176,39.8538],[-79.3873,39.9223]]]}},{"type":"Feature","properties":{"name":"Armstrong County","fips":"42005"},"geometry":{"type":"Polygon","coordinates":[[[-79.5676,40.59],[-79.5598,40.5626],[-79.4971,40.5253],[-79.4502,40.5301],[-79.2152,40.7759],[-79.2102,41.0491],[-79.283,41.0096],[-79.3638,41.0029],[-79.3761,40.9684],[-79.3781,40.9943],[-79.404,40.9883],[-79.4123,41.0085],[-79.4286,40.9855],[-79.4879,40.9956],[-79.4937,40.9779],[-79.5704,40.9856],[-79.6012,40.9693],[-79.6235,40.9846],[-79.5818,40.998],[-79.6095,41.0072],[-79.6012,41.0369],[-79.6662,41.0497],[-79.6555,41.0684],[-79.6794,41.0913],[-79.6893,41.1695],[-79.6929,40.6697],[-79.6683,40.68],[-79.64,40.6669],[-79.6078,40.6253],[-79.5837,40.6366],[-79.5821,40.6033],[-79.5505,40.6037],[-79.5676,40.59]]]}},{"type":"Feature","properties":{"name":"Clinton County","fips":"42035"},"geometry":{"type":"Polygon","coordinates":[[[-77.3064,41.2081],[-77.4456,41.2881],[-77.4764,41.3386],[-77.5377,41.365],[-77.5847,41.4413],[-77.5973,41.4411],[-77.5981,41.4786],[-77.9892,41.4748],[-77.9891,41.3674],[-78.0934,41.2169],[-78.0382,41.1536],[-78.0059,41.1436],[-78.0008,41.1617],[-77.9708,41.1747],[-77.9718,41.2059],[-77.9371,41.2103],[-77.9378,41.225],[-77.8984,41.2528],[-77.8977,41.1769],[-77.79,41.1771],[-77.7896,41.1421],[-77.778,41.1466],[-77.7467,41.1063],[-77.6633,41.1088],[-77.5687,41.0661],[-77.5617,41.0576],[-77.5802,41.0473],[-77.5086,40.9629],[-77.3399,40.9872],[-77.1442,41.0443],[-77.1441,41.0688],[-77.1643,41.0687],[-77.3064,41.2081]]]}},{"type":"Feature","properties":{"name":"Forest County","fips":"42053"},"geometry":{"type":"Polygon","coordinates":[[[-78.959,41.4371],[-78.9561,41.6233],[-79.5121,41.6246],[-79.5216,41.4406],[-79.4782,41.4401],[-79.4773,41.3865],[-79.4004,41.3866],[-79.4003,41.4361],[-79.2072,41.4309],[-79.2089,41.3319],[-79.192,41.3243],[-79.1802,41.3393],[-79.173,41.3253],[-79.1661,41.344],[-79.1576,41.3288],[-79.1382,41.3418],[-79.1113,41.3251],[-79.0951,41.3407],[-79.0936,41.4233],[-79.0652,41.4232],[-79.0635,41.4532],[-78.9767,41.4518],[-78.9767,41.437],[-78.959,41.4371]]]}},{"type":"Feature","properties":{"name":"Cameron County","fips":"42023"},"geometry":{"type":"Polygon","coordinates":[[[-78.0504,41.4755],[-78.2036,41.6176],[-78.4208,41.6173],[-78.42,41.405],[-78.254,41.4047],[-78.2544,41.3236],[-78.2347,41.3234],[-78.2369,41.2299],[-78.0934,41.2169],[-77.9891,41.3674],[-77.9892,41.4748],[-78.0504,41.4755]]]}},{"type":"Feature","properties":{"name":"Butler County","fips":"42019"},"geometry":{"type":"Polygon","coordinates":[[[-79.6893,41.1695],[-79.9998,41.1719],[-80.1665,41.0009],[-80.1487,40.6738],[-79.6929,40.6696],[-79.6893,41.1695]]]}},{"type":"Feature","properties":{"name":"Juniata County","fips":"42067"},"geometry":{"type":"Polygon","coordinates":[[[-77.5401,40.3992],[-77.1676,40.5595],[-77.1828,40.5822],[-77.0233,40.6043],[-76.9491,40.6282],[-76.9407,40.6462],[-76.9973,40.6357],[-77.0104,40.6616],[-77.0344,40.6599],[-77.0378,40.6795],[-77.0936,40.6761],[-77.1096,40.6916],[-77.1505,40.6771],[-77.2879,40.6936],[-77.4808,40.6195],[-77.4978,40.6095],[-77.4975,40.5817],[-77.6125,40.5142],[-77.6125,40.4909],[-77.7521,40.3785],[-77.703,40.2636],[-77.5994,40.3482],[-77.5323,40.376],[-77.5401,40.3992]]]}},{"type":"Feature","properties":{"name":"McKean County","fips":"42083"},"geometry":{"type":"Polygon","coordinates":[[[-78.2036,41.6176],[-78.2064,41.9995],[-78.9189,41.9981],[-78.9156,41.8409],[-78.9486,41.8305],[-78.9561,41.6233],[-78.4838,41.6315],[-78.4829,41.6023],[-78.4205,41.6019],[-78.4208,41.6173],[-78.2036,41.6176]]]}},{"type":"Feature","properties":{"name":"Centre County","fips":"42027"},"geometry":{"type":"Polygon","coordinates":[[[-77.7105,40.7146],[-77.3642,40.8469],[-77.2792,40.9097],[-77.1442,41.0443],[-77.3399,40.9872],[-77.5086,40.9629],[-77.5802,41.0473],[-77.5617,41.0576],[-77.5687,41.0661],[-77.6633,41.1088],[-77.7467,41.1063],[-77.778,41.1466],[-77.7896,41.1421],[-77.79,41.1771],[-77.8977,41.1769],[-77.8984,41.2528],[-77.9378,41.225],[-77.9371,41.2103],[-77.9718,41.2059],[-77.9708,41.1747],[-78.0008,41.1617],[-78.0047,41.1441],[-78.0375,41.1539],[-78.0704,41.1219],[-78.112,41.1143],[-78.0904,41.0582],[-78.0594,41.0512],[-78.0577,41.0369],[-78.0803,41.0307],[-78.0557,41.0049],[-78.0866,40.9942],[-78.0968,40.973],[-78.0781,40.9564],[-78.1203,40.9419],[-78.1337,40.967],[-78.1443,40.9486],[-78.1685,40.9605],[-78.1558,40.9414],[-78.221,40.9119],[-78.221,40.889],[-78.2495,40.8772],[-78.2356,40.8738],[-78.2481,40.8564],[-78.2898,40.8489],[-78.377,40.7524],[-78.363,40.7332],[-78.1318,40.743],[-77.9443,40.6916],[-77.8249,40.7435],[-77.7685,40.7195],[-77.7187,40.7274],[-77.7105,40.7146]]]}},{"type":"Feature","properties":{"name":"Adams County","fips":"42001"},"geometry":{"type":"Polygon","coordinates":[[[-76.9993,39.7201],[-76.9997,39.8313],[-76.9549,39.8569],[-76.984,39.8936],[-76.9662,39.9352],[-77.0186,40.0139],[-77.1276,40.0686],[-77.1856,40.0295],[-77.4036,39.9945],[-77.4711,39.9441],[-77.4591,39.72],[-76.9993,39.7201]]]}},{"type":"Feature","properties":{"name":"Lebanon County","fips":"42075"},"geometry":{"type":"Polygon","coordinates":[[[-76.5694,40.1955],[-76.3076,40.2551],[-76.1512,40.316],[-76.5354,40.5552],[-76.678,40.4747],[-76.5694,40.1955]]]}},{"type":"Feature","properties":{"name":"Lawrence County","fips":"42073"},"geometry":{"type":"Polygon","coordinates":[[[-80.1473,41.1139],[-80.519,41.1251],[-80.5191,40.8513],[-80.1585,40.8551],[-80.1665,41.0009],[-80.0983,41.0711],[-80.1473,41.1139]]]}},{"type":"Feature","properties":{"name":"Clearfield County","fips":"42033"},"geometry":{"type":"Polygon","coordinates":[[[-78.8063,40.7297],[-78.3484,40.7234],[-78.3752,40.7557],[-78.2895,40.8491],[-78.2481,40.8564],[-78.2356,40.8738],[-78.2495,40.8772],[-78.221,40.889],[-78.221,40.9119],[-78.1558,40.9414],[-78.1685,40.9605],[-78.1443,40.9486],[-78.1337,40.967],[-78.1203,40.9419],[-78.0781,40.9564],[-78.0968,40.973],[-78.0866,40.9942],[-78.0557,41.0049],[-78.0803,41.0307],[-78.0577,41.0369],[-78.0594,41.0512],[-78.0904,41.0582],[-78.1122,41.1136],[-78.0704,41.1219],[-78.0382,41.1536],[-78.0934,41.2169],[-78.6467,41.2538],[-78.6479,41.2175],[-78.7664,41.2028],[-78.8045,41.1322],[-78.8063,40.7297]]]}},{"type":"Feature","properties":{"name":"Schuylkill County","fips":"42107"},"geometry":{"type":"Polygon","coordinates":[[[-76.0168,40.576],[-75.9932,40.6397],[-75.7578,40.7354],[-75.886,40.8163],[-75.9976,40.9133],[-76.028,40.9023],[-76.2078,40.9497],[-76.2846,40.8836],[-76.3072,40.8018],[-76.7016,40.6581],[-76.4402,40.496],[-76.256,40.5171],[-76.0653,40.5797],[-76.0168,40.576]]]}},{"type":"Feature","properties":{"name":"Lehigh County","fips":"42077"},"geometry":{"type":"Polygon","coordinates":[[[-75.4815,40.6557],[-75.5301,40.7363],[-75.5564,40.7208],[-75.5926,40.7361],[-75.6091,40.7875],[-75.6946,40.7702],[-75.8915,40.6773],[-75.4839,40.4186],[-75.3335,40.5371],[-75.4044,40.5812],[-75.3781,40.6154],[-75.4304,40.6742],[-75.4815,40.6557]]]}},{"type":"Feature","properties":{"name":"Northampton County","fips":"42095"},"geometry":{"type":"Polygon","coordinates":[[[-75.1768,40.6754],[-75.2039,40.6915],[-75.1821,40.7315],[-75.1965,40.7516],[-75.1716,40.7777],[-75.1344,40.7738],[-75.1085,40.7911],[-75.0839,40.8245],[-75.0958,40.8471],[-75.066,40.8476],[-75.051,40.8657],[-75.1202,40.9687],[-75.2182,40.9279],[-75.2411,40.9094],[-75.2325,40.8998],[-75.3006,40.8596],[-75.609,40.7874],[-75.5926,40.7361],[-75.5564,40.7208],[-75.5289,40.7357],[-75.4815,40.6557],[-75.4304,40.6742],[-75.3781,40.6154],[-75.4044,40.5812],[-75.333,40.5368],[-75.1968,40.6086],[-75.2005,40.6492],[-75.1768,40.6754]]]}},{"type":"Feature","properties":{"name":"Potter County","fips":"42105"},"geometry":{"type":"Polygon","coordinates":[[[-78.2064,41.9995],[-78.2036,41.6176],[-78.0504,41.4755],[-77.5981,41.4786],[-77.61,41.9994],[-78.2064,41.9995]]]}},{"type":"Feature","properties":{"name":"Dauphin County","fips":"42043"},"geometry":{"type":"Polygon","coordinates":[[[-76.5666,40.1958],[-76.678,40.4747],[-76.5354,40.5552],[-76.7016,40.6581],[-76.8034,40.6472],[-76.9187,40.6035],[-76.9508,40.627],[-76.9574,40.5947],[-76.993,40.5641],[-76.9847,40.5151],[-76.9531,40.4906],[-76.9494,40.4691],[-77.0167,40.4247],[-77.0122,40.4044],[-77.0293,40.3887],[-77.0208,40.3662],[-76.9327,40.3553],[-76.9121,40.3255],[-76.9245,40.2914],[-76.9104,40.267],[-76.826,40.203],[-76.7527,40.1758],[-76.7305,40.1221],[-76.6974,40.1566],[-76.6772,40.1489],[-76.6081,40.1894],[-76.5666,40.1958]]]}},{"type":"Feature","properties":{"name":"Wyoming County","fips":"42131"},"geometry":{"type":"Polygon","coordinates":[[[-75.7716,41.5058],[-75.8032,41.5242],[-75.7199,41.6423],[-76.198,41.6478],[-76.2239,41.5245],[-76.2828,41.3772],[-76.0051,41.3846],[-75.8393,41.4246],[-75.7716,41.5058]]]}},{"type":"Feature","properties":{"name":"Fulton County","fips":"42057"},"geometry":{"type":"Polygon","coordinates":[[[-78.0027,39.8266],[-77.9195,40.0034],[-77.8645,40.0616],[-77.9256,40.104],[-78.0785,40.1333],[-78.1349,40.1651],[-78.1583,40.1222],[-78.2069,40.0863],[-78.1815,40.0587],[-78.2045,40.0415],[-78.201,40.013],[-78.299,39.8255],[-78.3806,39.7226],[-78.0994,39.7221],[-78.0027,39.8266]]]}},{"type":"Feature","properties":{"name":"Northumberland County","fips":"42097"},"geometry":{"type":"Polygon","coordinates":[[[-76.7029,40.6555],[-76.3803,40.7754],[-76.4115,40.8335],[-76.5016,40.8248],[-76.5041,40.8808],[-76.5573,40.8888],[-76.5681,40.9155],[-76.557,40.9386],[-76.6613,40.968],[-76.7929,40.9466],[-76.7351,41.0911],[-76.7327,41.172],[-76.7908,41.1757],[-76.8881,41.1538],[-76.8953,41.1174],[-76.8562,41.0501],[-76.8822,40.9688],[-76.8541,40.9154],[-76.7987,40.8784],[-76.8498,40.8091],[-76.8612,40.7116],[-76.9491,40.6282],[-76.937,40.6128],[-76.9187,40.6035],[-76.8034,40.6472],[-76.7029,40.6555]]]}},{"type":"Feature","properties":{"name":"Montgomery County","fips":"42091"},"geometry":{"type":"Polygon","coordinates":[[[-75.0151,40.138],[-75.5298,40.4471],[-75.6968,40.2419],[-75.6511,40.2421],[-75.6124,40.223],[-75.597,40.2368],[-75.5733,40.1953],[-75.5574,40.2076],[-75.5259,40.1486],[-75.5038,40.1597],[-75.5061,40.133],[-75.4616,40.1248],[-75.4716,40.1119],[-75.4563,40.0878],[-75.4201,40.0972],[-75.3926,40.061],[-75.3667,40.0724],[-75.2765,39.977],[-75.206,40.0117],[-75.2644,40.0541],[-75.2236,40.0929],[-75.1885,40.0727],[-75.1764,40.0846],[-75.1094,40.0458],[-75.0151,40.138]]]}},{"type":"Feature","properties":{"name":"Columbia County","fips":"42037"},"geometry":{"type":"Polygon","coordinates":[[[-76.3072,40.8018],[-76.2846,40.8836],[-76.2078,40.9497],[-76.2314,41.0507],[-76.229,41.1385],[-76.2774,41.1318],[-76.3192,41.2081],[-76.3103,41.3102],[-76.4079,41.3084],[-76.5926,41.1578],[-76.6408,41.1557],[-76.619,41.0638],[-76.5699,41.0538],[-76.5652,40.9998],[-76.5149,40.9589],[-76.5294,40.9401],[-76.528,40.8826],[-76.5041,40.8808],[-76.5016,40.8248],[-76.4115,40.8335],[-76.3803,40.7754],[-76.3072,40.8018]]]}},{"type":"Feature","properties":{"name":"Bedford County","fips":"42009"},"geometry":{"type":"Polygon","coordinates":[[[-78.299,39.8255],[-78.201,40.013],[-78.2042,40.0422],[-78.1818,40.0562],[-78.2069,40.0863],[-78.1583,40.1222],[-78.1347,40.1653],[-78.2363,40.2246],[-78.2573,40.2979],[-78.2888,40.2421],[-78.4343,40.3023],[-78.4479,40.2444],[-78.5057,40.2873],[-78.6189,40.3265],[-78.6517,40.2815],[-78.6438,40.2591],[-78.7398,40.0696],[-78.752,40.0749],[-78.7632,40.057],[-78.7572,39.8235],[-78.8084,39.7229],[-78.3806,39.7226],[-78.299,39.8255]]]}},{"type":"Feature","properties":{"name":"Beaver County","fips":"42007"},"geometry":{"type":"Polygon","coordinates":[[[-80.1451,40.6134],[-80.1585,40.8551],[-80.519,40.8513],[-80.519,40.4774],[-80.3609,40.4775],[-80.1804,40.6093],[-80.1451,40.6134]]]}},{"type":"Feature","properties":{"name":"Cambria County","fips":"42021"},"geometry":{"type":"Polygon","coordinates":[[[-78.5615,40.3697],[-78.5304,40.5191],[-78.4855,40.5414],[-78.4412,40.5972],[-78.4397,40.6448],[-78.4085,40.6443],[-78.3487,40.7234],[-78.8023,40.7246],[-78.9219,40.4835],[-79.0563,40.2849],[-78.9271,40.2847],[-78.8962,40.2716],[-78.8847,40.2446],[-78.6583,40.2432],[-78.6438,40.2591],[-78.6517,40.2815],[-78.6022,40.3536],[-78.5615,40.3697]]]}},{"type":"Feature","properties":{"name":"Lackawanna County","fips":"42069"},"geometry":{"type":"Polygon","coordinates":[[[-75.4404,41.2581],[-75.4624,41.6416],[-75.7199,41.6423],[-75.8032,41.5242],[-75.7716,41.5058],[-75.8345,41.427],[-75.8232,41.3894],[-75.7421,41.3483],[-75.6886,41.3394],[-75.6793,41.2643],[-75.6523,41.2574],[-75.6492,41.1872],[-75.6018,41.1614],[-75.5439,41.2236],[-75.5167,41.2193],[-75.4961,41.2429],[-75.4404,41.2581]]]}},{"type":"Feature","properties":{"name":"Carbon County","fips":"42025"},"geometry":{"type":"Polygon","coordinates":[[[-75.4742,40.8147],[-75.5746,40.9513],[-75.4961,40.9874],[-75.6204,41.1093],[-75.6567,41.116],[-75.6675,41.134],[-75.7674,41.093],[-75.7703,41.0502],[-75.7322,41.0081],[-75.9976,40.9133],[-75.886,40.8163],[-75.7578,40.7354],[-75.6881,40.7721],[-75.4742,40.8147]]]}},{"type":"Feature","properties":{"name":"Union County","fips":"42119"},"geometry":{"type":"Polygon","coordinates":[[[-77.0199,40.8579],[-76.9415,40.8881],[-76.7993,40.8786],[-76.8515,40.9128],[-76.8762,40.9511],[-76.857,41.0666],[-76.8896,41.1006],[-76.8961,41.1391],[-76.9602,41.1488],[-76.9779,41.0879],[-77.1441,41.0688],[-77.1438,41.0428],[-77.3642,40.8469],[-77.3566,40.8073],[-77.0741,40.8683],[-77.0199,40.8579]]]}},{"type":"Feature","properties":{"name":"Westmoreland County","fips":"42129"},"geometry":{"type":"Polygon","coordinates":[[[-79.1726,40.1255],[-79.1613,40.1609],[-79.14,40.1639],[-79.1433,40.1799],[-79.1267,40.1833],[-78.9982,40.3562],[-78.9738,40.3954],[-78.9871,40.411],[-79.0293,40.4193],[-79.0589,40.3803],[-79.083,40.3896],[-79.0996,40.3689],[-79.1216,40.3706],[-79.1287,40.3851],[-79.116,40.3935],[-79.1527,40.3992],[-79.1558,40.4118],[-79.2007,40.4109],[-79.2469,40.4322],[-79.2729,40.4184],[-79.2732,40.4395],[-79.3013,40.4352],[-79.3016,40.4614],[-79.3286,40.4526],[-79.3403,40.4706],[-79.3579,40.4523],[-79.3621,40.4787],[-79.3712,40.4551],[-79.3923,40.4548],[-79.4295,40.4886],[-79.4538,40.4842],[-79.4533,40.5332],[-79.4971,40.5253],[-79.5598,40.5626],[-79.5707,40.5841],[-79.5509,40.6042],[-79.5812,40.6025],[-79.5837,40.6366],[-79.6078,40.6253],[-79.611,40.642],[-79.6683,40.68],[-79.6929,40.6697],[-79.6903,40.6409],[-79.7213,40.6082],[-79.7716,40.5856],[-79.7651,40.5492],[-79.7356,40.549],[-79.7016,40.5254],[-79.7048,40.4263],[-79.7711,40.3754],[-79.7886,40.2977],[-79.7752,40.2864],[-79.7958,40.2811],[-79.7875,40.2625],[-79.8074,40.2369],[-79.7826,40.2276],[-79.8714,40.1974],[-79.8506,40.1747],[-79.9031,40.1602],[-79.8866,40.1302],[-79.7461,40.1285],[-79.7081,40.1077],[-79.6856,40.1138],[-79.6424,40.0836],[-79.622,40.0945],[-79.593,40.0821],[-79.5854,40.1021],[-79.5421,40.1119],[-79.5347,40.1284],[-79.4615,40.1441],[-79.4379,40.116],[-79.3555,40.0743],[-79.3418,40.0432],[-79.2934,40.0403],[-79.256,40.0885],[-79.1726,40.1255]]]}},{"type":"Feature","properties":{"name":"Pike County","fips":"42103"},"geometry":{"type":"Polygon","coordinates":[[[-74.8611,41.2436],[-74.7551,41.3459],[-74.6898,41.3617],[-74.7412,41.4054],[-74.7372,41.4298],[-74.7891,41.4214],[-74.8082,41.4429],[-74.832,41.4304],[-74.8577,41.4442],[-74.8926,41.4386],[-74.8902,41.4556],[-74.913,41.476],[-74.9821,41.48],[-74.9842,41.5065],[-75.0036,41.5083],[-75.0245,41.5346],[-75.0188,41.5524],[-75.0696,41.6019],[-75.1881,41.4577],[-75.1862,41.4428],[-75.2502,41.4186],[-75.2621,41.375],[-75.3485,41.3706],[-75.3443,41.3374],[-75.3104,41.3269],[-75.3592,41.2392],[-75.1297,41.2521],[-75.1565,41.1503],[-75.0768,41.1411],[-75.0272,41.0799],[-74.9053,41.1557],[-74.8595,41.2188],[-74.8611,41.2436]]]}},{"type":"Feature","properties":{"name":"Susquehanna County","fips":"42115"},"geometry":{"type":"Polygon","coordinates":[[[-75.4831,41.9993],[-76.1455,41.9988],[-76.1142,41.6434],[-75.4622,41.6416],[-75.4831,41.9993]]]}},{"type":"Feature","properties":{"name":"Indiana County","fips":"42063"},"geometry":{"type":"Polygon","coordinates":[[[-79.2153,40.906],[-79.2152,40.7759],[-79.459,40.5205],[-79.4538,40.4842],[-79.4295,40.4886],[-79.3818,40.4527],[-79.3621,40.4787],[-79.3579,40.4523],[-79.3403,40.4706],[-79.3286,40.4526],[-79.301,40.4612],[-79.3013,40.4352],[-79.2732,40.4395],[-79.2684,40.4168],[-79.2469,40.4322],[-79.2007,40.4109],[-79.1545,40.4113],[-79.1527,40.3992],[-79.116,40.3935],[-79.1287,40.3851],[-79.1216,40.3706],[-79.0996,40.3689],[-79.083,40.3896],[-79.0589,40.3803],[-79.0278,40.4196],[-78.9738,40.3954],[-78.8089,40.721],[-78.7992,40.7171],[-78.8052,40.906],[-79.2153,40.906]]]}},{"type":"Feature","properties":{"name":"Perry County","fips":"42099"},"geometry":{"type":"Polygon","coordinates":[[[-77.0163,40.4252],[-76.9494,40.4691],[-76.9531,40.4906],[-76.9847,40.5151],[-76.993,40.5641],[-76.9574,40.5947],[-76.9491,40.6282],[-77.1828,40.5822],[-77.1676,40.5595],[-77.4784,40.432],[-77.5401,40.3992],[-77.5323,40.376],[-77.6531,40.3085],[-77.6718,40.2898],[-77.6564,40.2704],[-77.6712,40.2576],[-77.6457,40.256],[-77.6428,40.2181],[-77.6027,40.2282],[-77.6147,40.1986],[-77.6054,40.1854],[-77.366,40.3136],[-77.4215,40.2558],[-77.3266,40.2926],[-77.3312,40.2764],[-77.3122,40.2677],[-76.915,40.3285],[-76.9346,40.3566],[-77.0208,40.3662],[-77.0293,40.3887],[-77.0122,40.4044],[-77.0163,40.4252]]]}},{"type":"Feature","properties":{"name":"Washington County","fips":"42125"},"geometry":{"type":"Polygon","coordinates":[[[-79.8948,40.0703],[-79.8393,40.0893],[-79.9049,40.1542],[-79.8595,40.1631],[-79.8533,40.1892],[-79.9138,40.1979],[-79.9713,40.2282],[-79.9145,40.2524],[-80.1846,40.3331],[-80.3608,40.4776],[-80.519,40.4774],[-80.5191,39.9622],[-80.4753,39.9521],[-80.4536,39.9734],[-80.3126,40.0033],[-80.3014,40.0206],[-80.2734,40.0024],[-80.1759,40.0081],[-80.1295,39.9884],[-80.0861,39.9903],[-80.0598,40.0095],[-80.039,39.9966],[-80.0483,39.9785],[-80.0176,39.9775],[-79.9914,39.9855],[-79.9852,40.0131],[-79.9467,39.9943],[-79.88,40.0283],[-79.8919,40.0482],[-79.8791,40.0638],[-79.8948,40.0703]]]}},{"type":"Feature","properties":{"name":"Monroe County","fips":"42089"},"geometry":{"type":"Polygon","coordinates":[[[-75.2948,40.8622],[-75.2325,40.8998],[-75.2411,40.9094],[-75.2178,40.9281],[-75.1292,40.9589],[-75.1286,40.9929],[-75.0271,41.0395],[-75.0124,41.0673],[-74.968,41.0887],[-75.028,41.0799],[-75.0768,41.1411],[-75.1565,41.1503],[-75.1297,41.2521],[-75.5398,41.2255],[-75.6251,41.1309],[-75.649,41.1251],[-75.4961,40.9874],[-75.5746,40.9513],[-75.4742,40.8147],[-75.2948,40.8622]]]}},{"type":"Feature","properties":{"name":"Blair County","fips":"42013"},"geometry":{"type":"Polygon","coordinates":[[[-78.5304,40.5191],[-78.5615,40.3697],[-78.6022,40.3536],[-78.6189,40.3265],[-78.5057,40.2873],[-78.4479,40.2444],[-78.4343,40.3023],[-78.2888,40.2421],[-78.1295,40.4857],[-78.1339,40.4983],[-78.1539,40.4922],[-78.1286,40.568],[-78.1662,40.5314],[-78.1856,40.5437],[-78.1971,40.5584],[-78.1664,40.6181],[-78.222,40.6745],[-78.1165,40.7391],[-78.3606,40.7332],[-78.3484,40.7234],[-78.4085,40.6443],[-78.4421,40.6414],[-78.4412,40.5972],[-78.4855,40.5414],[-78.5304,40.5191]]]}},{"type":"Feature","properties":{"name":"Sullivan County","fips":"42113"},"geometry":{"type":"Polygon","coordinates":[[[-76.2201,41.5413],[-76.8137,41.59],[-76.7495,41.4056],[-76.5925,41.3043],[-76.4476,41.2756],[-76.4079,41.3084],[-76.3103,41.3102],[-76.2201,41.5413]]]}},{"type":"Feature","properties":{"name":"Wayne County","fips":"42127"},"geometry":{"type":"Polygon","coordinates":[[[-75.3505,41.368],[-75.2621,41.375],[-75.25,41.4188],[-75.1862,41.4428],[-75.0745,41.6081],[-75.0445,41.6172],[-75.0526,41.6881],[-75.069,41.7093],[-75.0497,41.7134],[-75.053,41.7521],[-75.0751,41.7715],[-75.1035,41.7712],[-75.0716,41.8128],[-75.113,41.8226],[-75.1166,41.8454],[-75.1621,41.8502],[-75.1741,41.8726],[-75.1854,41.8601],[-75.2604,41.8639],[-75.2788,41.9387],[-75.3416,41.9722],[-75.3416,41.9932],[-75.4831,41.9993],[-75.4404,41.2581],[-75.5056,41.2325],[-75.3526,41.2429],[-75.3104,41.3269],[-75.3443,41.3374],[-75.3505,41.368]]]}},{"type":"Feature","properties":{"name":"Erie County","fips":"42049"},"geometry":{"type":"Polygon","coordinates":[[[-80.5194,41.8496],[-79.6121,41.8503],[-79.6106,41.9895],[-79.762,41.9988],[-79.7624,42.5161],[-80.0802,42.3942],[-80.5199,42.3271],[-80.5194,41.8496]]]}},{"type":"Feature","properties":{"name":"Elk County","fips":"42047"},"geometry":{"type":"Polygon","coordinates":[[[-78.6467,41.2536],[-78.2369,41.2299],[-78.2347,41.3234],[-78.2544,41.3236],[-78.254,41.4047],[-78.42,41.405],[-78.4205,41.6019],[-78.4829,41.6023],[-78.4838,41.6315],[-78.9561,41.6233],[-78.959,41.4371],[-78.9767,41.437],[-78.9767,41.4518],[-79.0635,41.4532],[-79.0652,41.4232],[-79.0936,41.4233],[-79.0951,41.3407],[-79.076,41.3543],[-79.0174,41.3501],[-78.9698,41.3759],[-78.7353,41.2629],[-78.7382,41.2307],[-78.7101,41.2302],[-78.7102,41.2019],[-78.6479,41.2175],[-78.6467,41.2536]]]}},{"type":"Feature","properties":{"name":"Jefferson County","fips":"42065"},"geometry":{"type":"Polygon","coordinates":[[[-79.2089,41.3319],[-79.2153,40.9113],[-78.8052,40.906],[-78.8045,41.1322],[-78.7664,41.2028],[-78.7102,41.2019],[-78.7101,41.2302],[-78.7382,41.2307],[-78.7353,41.2629],[-78.9725,41.3765],[-79.0174,41.3501],[-79.0791,41.3536],[-79.1113,41.3251],[-79.1382,41.3418],[-79.1576,41.3288],[-79.1661,41.344],[-79.173,41.3253],[-79.1802,41.3393],[-79.192,41.3243],[-79.2089,41.3319]]]}},{"type":"Feature","properties":{"name":"Lancaster County","fips":"42071"},"geometry":{"type":"Polygon","coordinates":[[[-75.9946,39.9524],[-75.9359,40.0375],[-75.943,40.1093],[-75.8734,40.1371],[-76.1512,40.316],[-76.3076,40.2551],[-76.4354,40.2382],[-76.6065,40.19],[-76.6772,40.1489],[-76.6974,40.1566],[-76.7216,40.1201],[-76.6638,40.0632],[-76.534,40.051],[-76.4777,39.9498],[-76.3905,39.9118],[-76.3777,39.8667],[-76.2774,39.7777],[-76.2398,39.7213],[-76.0958,39.7299],[-76.1003,39.7457],[-76.0667,39.76],[-76.0414,39.7966],[-76.0498,39.8027],[-76.0296,39.8127],[-76.0376,39.8269],[-76.0165,39.8313],[-76.0222,39.8508],[-75.9868,39.8736],[-75.9974,39.9281],[-75.981,39.9335],[-75.9946,39.9524]]]}},{"type":"Feature","properties":{"name":"Clarion County","fips":"42031"},"geometry":{"type":"Polygon","coordinates":[[[-79.3648,41.0022],[-79.2825,41.0098],[-79.2152,41.0505],[-79.2072,41.4309],[-79.4003,41.4361],[-79.4004,41.3866],[-79.4778,41.3865],[-79.4781,41.3357],[-79.6042,41.3215],[-79.6046,41.2771],[-79.6276,41.2772],[-79.6329,41.2536],[-79.6504,41.2537],[-79.6496,41.2179],[-79.6701,41.1831],[-79.7004,41.1815],[-79.6797,41.1599],[-79.6784,41.0888],[-79.6555,41.0684],[-79.666,41.0493],[-79.6012,41.0369],[-79.6095,41.0072],[-79.5818,40.998],[-79.6191,40.989],[-79.6208,40.9752],[-79.5934,40.9688],[-79.5662,40.9858],[-79.5224,40.975],[-79.5152,40.9869],[-79.5015,40.9766],[-79.4879,40.9956],[-79.451,40.9817],[-79.4123,41.0085],[-79.404,40.9883],[-79.3781,40.9943],[-79.3768,40.9683],[-79.3648,41.0022]]]}},{"type":"Feature","properties":{"name":"Philadelphia County","fips":"42101"},"geometry":{"type":"Polygon","coordinates":[[[-75.2803,39.975],[-75.2478,39.9639],[-75.2348,39.9373],[-75.2625,39.8766],[-75.212,39.8675],[-75.1423,39.8852],[-75.1311,39.9589],[-75.0722,39.9801],[-75.0488,40.0092],[-74.9762,40.0477],[-74.9852,40.0572],[-74.9558,40.095],[-74.9632,40.1167],[-75.0151,40.138],[-75.1094,40.0458],[-75.1764,40.0846],[-75.1885,40.0727],[-75.2236,40.0929],[-75.2644,40.0541],[-75.206,40.0117],[-75.2803,39.975]]]}},{"type":"Feature","properties":{"name":"Delaware County","fips":"42045"},"geometry":{"type":"Polygon","coordinates":[[[-75.3165,39.85],[-75.2115,39.867],[-75.2625,39.8766],[-75.2347,39.9369],[-75.2475,39.9635],[-75.2777,39.9712],[-75.3601,40.0662],[-75.415,40.0418],[-75.4043,40.0274],[-75.4538,39.9936],[-75.4358,39.9851],[-75.5238,39.9441],[-75.5235,39.9231],[-75.5427,39.9272],[-75.6015,39.8564],[-75.5956,39.8376],[-75.4999,39.8337],[-75.4151,39.8019],[-75.3165,39.85]]]}}]}